{
 "type": "FeatureCollection",
 "features": [
  {
   "type": "Feature",
   "properties": {
    "route_id": "R1",
    "name": "West \u00b7 Zaporizhzhia corridor",
    "note": "The negotiated humanitarian corridor via Manhush",
    "length_m": 9543,
    "vertices": 7,
    "exit": [
     37.452,
     47.144
    ],
    "safe": true
   },
   "geometry": {
    "type": "LineString",
    "coordinates": [
     [
      37.5432,
      47.09561
     ],
     [
      37.54303,
      47.09563
     ],
     [
      37.54327,
      47.0971
     ],
     [
      37.50763,
      47.09967
     ],
     [
      37.51014,
      47.11649
     ],
     [
      37.50986,
      47.11689
     ],
     [
      37.45966,
      47.14209
     ]
    ]
   }
  },
  {
   "type": "Feature",
   "properties": {
    "route_id": "R2",
    "name": "North \u00b7 Donetsk highway (H-20)",
    "note": "Toward Volnovakha; contested throughout the siege",
    "length_m": 9924,
    "vertices": 18,
    "exit": [
     37.548,
     47.172
    ],
    "safe": true
   },
   "geometry": {
    "type": "LineString",
    "coordinates": [
     [
      37.5432,
      47.09561
     ],
     [
      37.54303,
      47.09563
     ],
     [
      37.54334,
      47.09724
     ],
     [
      37.55387,
      47.1085
     ],
     [
      37.56272,
      47.11833
     ],
     [
      37.56293,
      47.11907
     ],
     [
      37.56307,
      47.12224
     ],
     [
      37.56572,
      47.13124
     ],
     [
      37.5685,
      47.13988
     ],
     [
      37.56429,
      47.14068
     ],
     [
      37.56106,
      47.14402
     ],
     [
      37.55999,
      47.14448
     ],
     [
      37.55452,
      47.14585
     ],
     [
      37.54926,
      47.15006
     ],
     [
      37.54511,
      47.16056
     ],
     [
      37.5432,
      47.1628
     ],
     [
      37.54026,
      47.16535
     ],
     [
      37.54368,
      47.17152
     ]
    ]
   }
  },
  {
   "type": "Feature",
   "properties": {
    "route_id": "R3",
    "name": "East \u00b7 Novoazovsk / Bezimenne",
    "note": "Filtration-bound; an exit from the city, not to safety",
    "length_m": 10162,
    "vertices": 33,
    "exit": [
     37.639,
     47.101
    ],
    "safe": false
   },
   "geometry": {
    "type": "LineString",
    "coordinates": [
     [
      37.5432,
      47.09561
     ],
     [
      37.54303,
      47.09563
     ],
     [
      37.54334,
      47.09724
     ],
     [
      37.55387,
      47.1085
     ],
     [
      37.55515,
      47.10796
     ],
     [
      37.55532,
      47.10815
     ],
     [
      37.55937,
      47.10645
     ],
     [
      37.55963,
      47.10659
     ],
     [
      37.56102,
      47.10604
     ],
     [
      37.56445,
      47.10456
     ],
     [
      37.56844,
      47.10234
     ],
     [
      37.57268,
      47.10108
     ],
     [
      37.57288,
      47.10114
     ],
     [
      37.57396,
      47.10272
     ],
     [
      37.57499,
      47.10335
     ],
     [
      37.5764,
      47.10393
     ],
     [
      37.58346,
      47.10633
     ],
     [
      37.60382,
      47.11161
     ],
     [
      37.61064,
      47.11423
     ],
     [
      37.61133,
      47.1147
     ],
     [
      37.6122,
      47.11563
     ],
     [
      37.61252,
      47.11577
     ],
     [
      37.62599,
      47.1128
     ],
     [
      37.62698,
      47.11247
     ],
     [
      37.62748,
      47.11213
     ],
     [
      37.63007,
      47.10957
     ],
     [
      37.62994,
      47.10795
     ],
     [
      37.63649,
      47.10754
     ],
     [
      37.63648,
      47.10725
     ],
     [
      37.63735,
      47.1072
     ],
     [
      37.6367,
      47.10213
     ],
     [
      37.64009,
      47.10193
     ],
     [
      37.63995,
      47.10082
     ]
    ]
   }
  },
  {
   "type": "Feature",
   "properties": {
    "route_id": "R4",
    "name": "South-west \u00b7 coastal road",
    "note": "Melekyne shore road, west along the Sea of Azov",
    "length_m": 8355,
    "vertices": 27,
    "exit": [
     37.461,
     47.063
    ],
    "safe": true
   },
   "geometry": {
    "type": "LineString",
    "coordinates": [
     [
      37.5432,
      47.09561
     ],
     [
      37.53934,
      47.09585
     ],
     [
      37.5352,
      47.09417
     ],
     [
      37.52997,
      47.09064
     ],
     [
      37.51178,
      47.07509
     ],
     [
      37.51033,
      47.0742
     ],
     [
      37.50873,
      47.07348
     ],
     [
      37.50754,
      47.07265
     ],
     [
      37.50721,
      47.072
     ],
     [
      37.50708,
      47.06951
     ],
     [
      37.50715,
      47.06896
     ],
     [
      37.50762,
      47.06839
     ],
     [
      37.50767,
      47.06804
     ],
     [
      37.50465,
      47.06821
     ],
     [
      37.50335,
      47.06868
     ],
     [
      37.50214,
      47.0687
     ],
     [
      37.50198,
      47.069
     ],
     [
      37.5003,
      47.06901
     ],
     [
      37.4994,
      47.0686
     ],
     [
      37.49806,
      47.06856
     ],
     [
      37.49571,
      47.06819
     ],
     [
      37.4956,
      47.06739
     ],
     [
      37.49286,
      47.0657
     ],
     [
      37.48341,
      47.06536
     ],
     [
      37.48133,
      47.06491
     ],
     [
      37.47019,
      47.06432
     ],
     [
      37.45833,
      47.06342
     ]
    ]
   }
  }
 ]
}