{
 "type": "FeatureCollection",
 "features": [
  {
   "type": "Feature",
   "properties": {
    "zone_id": "Z1",
    "route_id": "R1",
    "entry_index": 9,
    "length_m": 56
   },
   "geometry": {
    "type": "LineString",
    "coordinates": [
     [
      -115.17067,
      36.12327
     ],
     [
      -115.17098,
      36.12283
     ]
    ]
   }
  },
  {
   "type": "Feature",
   "properties": {
    "zone_id": "Z1",
    "route_id": "R2",
    "entry_index": 0,
    "length_m": 1450
   },
   "geometry": {
    "type": "LineString",
    "coordinates": [
     [
      -115.17067,
      36.12327
     ],
     [
      -115.17174,
      36.12152
     ],
     [
      -115.17248,
      36.11965
     ],
     [
      -115.17281,
      36.11748
     ],
     [
      -115.17277,
      36.11459
     ],
     [
      -115.17121,
      36.11458
     ],
     [
      -115.17125,
      36.1137
     ],
     [
      -115.17099,
      36.11355
     ],
     [
      -115.17091,
      36.11315
     ],
     [
      -115.16949,
      36.11319
     ]
    ]
   }
  },
  {
   "type": "Feature",
   "properties": {
    "zone_id": "Z1",
    "route_id": "R3",
    "entry_index": 0,
    "length_m": 1450
   },
   "geometry": {
    "type": "LineString",
    "coordinates": [
     [
      -115.17067,
      36.12327
     ],
     [
      -115.17174,
      36.12152
     ],
     [
      -115.17248,
      36.11965
     ],
     [
      -115.17281,
      36.11748
     ],
     [
      -115.17277,
      36.11459
     ],
     [
      -115.17121,
      36.11458
     ],
     [
      -115.17125,
      36.1137
     ],
     [
      -115.17099,
      36.11355
     ],
     [
      -115.17091,
      36.11315
     ],
     [
      -115.16949,
      36.11319
     ]
    ]
   }
  },
  {
   "type": "Feature",
   "properties": {
    "zone_id": "Z1",
    "route_id": "R4",
    "entry_index": 4,
    "length_m": 1179
   },
   "geometry": {
    "type": "LineString",
    "coordinates": [
     [
      -115.17067,
      36.12327
     ],
     [
      -115.17162,
      36.12176
     ],
     [
      -115.17234,
      36.12008
     ],
     [
      -115.17263,
      36.11902
     ],
     [
      -115.17281,
      36.11748
     ],
     [
      -115.17277,
      36.11459
     ],
     [
      -115.17078,
      36.11458
     ]
    ]
   }
  },
  {
   "type": "Feature",
   "properties": {
    "zone_id": "Z2",
    "route_id": "R1",
    "entry_index": 1,
    "length_m": 365
   },
   "geometry": {
    "type": "LineString",
    "coordinates": [
     [
      -115.17242,
      36.11166
     ],
     [
      -115.17281,
      36.11166
     ],
     [
      -115.17279,
      36.11311
     ],
     [
      -115.17091,
      36.11315
     ]
    ]
   }
  },
  {
   "type": "Feature",
   "properties": {
    "zone_id": "Z2",
    "route_id": "R2",
    "entry_index": 1,
    "length_m": 196
   },
   "geometry": {
    "type": "LineString",
    "coordinates": [
     [
      -115.17242,
      36.11166
     ],
     [
      -115.17281,
      36.11166
     ],
     [
      -115.17279,
      36.11311
     ]
    ]
   }
  },
  {
   "type": "Feature",
   "properties": {
    "zone_id": "Z2",
    "route_id": "R3",
    "entry_index": 2,
    "length_m": 35
   },
   "geometry": {
    "type": "LineString",
    "coordinates": [
     [
      -115.17242,
      36.11166
     ],
     [
      -115.17281,
      36.11166
     ]
    ]
   }
  },
  {
   "type": "Feature",
   "properties": {
    "zone_id": "Z2",
    "route_id": "R4",
    "entry_index": 1,
    "length_m": 365
   },
   "geometry": {
    "type": "LineString",
    "coordinates": [
     [
      -115.17242,
      36.11166
     ],
     [
      -115.17281,
      36.11166
     ],
     [
      -115.17279,
      36.11311
     ],
     [
      -115.17091,
      36.11315
     ]
    ]
   }
  },
  {
   "type": "Feature",
   "properties": {
    "zone_id": "Z3",
    "route_id": "R1",
    "entry_index": 1,
    "length_m": 2158
   },
   "geometry": {
    "type": "LineString",
    "coordinates": [
     [
      -115.17548,
      36.09737
     ],
     [
      -115.17309,
      36.09736
     ],
     [
      -115.17309,
      36.10075
     ],
     [
      -115.17283,
      36.10077
     ],
     [
      -115.17279,
      36.10132
     ],
     [
      -115.17279,
      36.11311
     ],
     [
      -115.17091,
      36.11315
     ]
    ]
   }
  },
  {
   "type": "Feature",
   "properties": {
    "zone_id": "Z3",
    "route_id": "R2",
    "entry_index": 2,
    "length_m": 261
   },
   "geometry": {
    "type": "LineString",
    "coordinates": [
     [
      -115.17548,
      36.09737
     ],
     [
      -115.17327,
      36.0974
     ],
     [
      -115.17282,
      36.09733
     ],
     [
      -115.17283,
      36.09714
     ]
    ]
   }
  },
  {
   "type": "Feature",
   "properties": {
    "zone_id": "Z3",
    "route_id": "R3",
    "entry_index": 8,
    "length_m": 1995
   },
   "geometry": {
    "type": "LineString",
    "coordinates": [
     [
      -115.17548,
      36.09737
     ],
     [
      -115.17309,
      36.09736
     ],
     [
      -115.17315,
      36.10881
     ],
     [
      -115.17368,
      36.1091
     ],
     [
      -115.17595,
      36.10916
     ],
     [
      -115.17682,
      36.10892
     ],
     [
      -115.1776,
      36.10847
     ],
     [
      -115.17771,
      36.10858
     ],
     [
      -115.17827,
      36.10832
     ]
    ]
   }
  },
  {
   "type": "Feature",
   "properties": {
    "zone_id": "Z3",
    "route_id": "R4",
    "entry_index": 1,
    "length_m": 2158
   },
   "geometry": {
    "type": "LineString",
    "coordinates": [
     [
      -115.17548,
      36.09737
     ],
     [
      -115.17309,
      36.09736
     ],
     [
      -115.17309,
      36.10075
     ],
     [
      -115.17283,
      36.10077
     ],
     [
      -115.17279,
      36.10132
     ],
     [
      -115.17279,
      36.11311
     ],
     [
      -115.17091,
      36.11315
     ]
    ]
   }
  },
  {
   "type": "Feature",
   "properties": {
    "zone_id": "Z4",
    "route_id": "R1",
    "entry_index": 15,
    "length_m": 406
   },
   "geometry": {
    "type": "LineString",
    "coordinates": [
     [
      -115.153,
      36.12899
     ],
     [
      -115.15428,
      36.12794
     ],
     [
      -115.15481,
      36.12787
     ],
     [
      -115.15476,
      36.1296
     ]
    ]
   }
  },
  {
   "type": "Feature",
   "properties": {
    "zone_id": "Z4",
    "route_id": "R2",
    "entry_index": 0,
    "length_m": 3546
   },
   "geometry": {
    "type": "LineString",
    "coordinates": [
     [
      -115.153,
      36.12899
     ],
     [
      -115.15428,
      36.12794
     ],
     [
      -115.15481,
      36.12787
     ],
     [
      -115.15485,
      36.1229
     ],
     [
      -115.15496,
      36.1228
     ],
     [
      -115.15506,
      36.12183
     ],
     [
      -115.15507,
      36.11812
     ],
     [
      -115.15409,
      36.11439
     ],
     [
      -115.15916,
      36.11445
     ],
     [
      -115.15917,
      36.11433
     ],
     [
      -115.15948,
      36.11433
     ],
     [
      -115.17078,
      36.11458
     ],
     [
      -115.17082,
      36.1138
     ],
     [
      -115.17107,
      36.11364
     ],
     [
      -115.17091,
      36.11315
     ],
     [
      -115.16949,
      36.11319
     ]
    ]
   }
  },
  {
   "type": "Feature",
   "properties": {
    "zone_id": "Z4",
    "route_id": "R3",
    "entry_index": 0,
    "length_m": 3546
   },
   "geometry": {
    "type": "LineString",
    "coordinates": [
     [
      -115.153,
      36.12899
     ],
     [
      -115.15428,
      36.12794
     ],
     [
      -115.15481,
      36.12787
     ],
     [
      -115.15485,
      36.1229
     ],
     [
      -115.15496,
      36.1228
     ],
     [
      -115.15506,
      36.12183
     ],
     [
      -115.15507,
      36.11812
     ],
     [
      -115.15409,
      36.11439
     ],
     [
      -115.15916,
      36.11445
     ],
     [
      -115.15917,
      36.11433
     ],
     [
      -115.15948,
      36.11433
     ],
     [
      -115.17078,
      36.11458
     ],
     [
      -115.17082,
      36.1138
     ],
     [
      -115.17107,
      36.11364
     ],
     [
      -115.17091,
      36.11315
     ],
     [
      -115.16949,
      36.11319
     ]
    ]
   }
  },
  {
   "type": "Feature",
   "properties": {
    "zone_id": "Z4",
    "route_id": "R4",
    "entry_index": 5,
    "length_m": 1747
   },
   "geometry": {
    "type": "LineString",
    "coordinates": [
     [
      -115.153,
      36.12899
     ],
     [
      -115.15428,
      36.12794
     ],
     [
      -115.15481,
      36.12787
     ],
     [
      -115.15485,
      36.1229
     ],
     [
      -115.15496,
      36.1228
     ],
     [
      -115.15506,
      36.12183
     ],
     [
      -115.15507,
      36.11812
     ],
     [
      -115.15405,
      36.11425
     ]
    ]
   }
  },
  {
   "type": "Feature",
   "properties": {
    "zone_id": "Z5",
    "route_id": "R1",
    "entry_index": 0,
    "length_m": 1354
   },
   "geometry": {
    "type": "LineString",
    "coordinates": [
     [
      -115.1639,
      36.10541
     ],
     [
      -115.16403,
      36.10809
     ],
     [
      -115.1676,
      36.10809
     ],
     [
      -115.16764,
      36.11318
     ],
     [
      -115.16949,
      36.11319
     ]
    ]
   }
  },
  {
   "type": "Feature",
   "properties": {
    "zone_id": "Z5",
    "route_id": "R2",
    "entry_index": 0,
    "length_m": 1354
   },
   "geometry": {
    "type": "LineString",
    "coordinates": [
     [
      -115.1639,
      36.10541
     ],
     [
      -115.16403,
      36.10809
     ],
     [
      -115.1676,
      36.10809
     ],
     [
      -115.16764,
      36.11318
     ],
     [
      -115.16949,
      36.11319
     ]
    ]
   }
  },
  {
   "type": "Feature",
   "properties": {
    "zone_id": "Z5",
    "route_id": "R3",
    "entry_index": 4,
    "length_m": 1205
   },
   "geometry": {
    "type": "LineString",
    "coordinates": [
     [
      -115.1639,
      36.10541
     ],
     [
      -115.16403,
      36.10809
     ],
     [
      -115.17187,
      36.10813
     ],
     [
      -115.17314,
      36.109
     ],
     [
      -115.17314,
      36.10944
     ]
    ]
   }
  },
  {
   "type": "Feature",
   "properties": {
    "zone_id": "Z5",
    "route_id": "R4",
    "entry_index": 0,
    "length_m": 1354
   },
   "geometry": {
    "type": "LineString",
    "coordinates": [
     [
      -115.1639,
      36.10541
     ],
     [
      -115.16403,
      36.10809
     ],
     [
      -115.1676,
      36.10809
     ],
     [
      -115.16764,
      36.11318
     ],
     [
      -115.16949,
      36.11319
     ]
    ]
   }
  }
 ]
}