{
 "type": "FeatureCollection",
 "features": [
  {
   "type": "Feature",
   "properties": {
    "route_id": "R1",
    "name": "North \u00b7 Sahara Ave",
    "note": "Off the Strip to the north",
    "length_m": 4184,
    "vertices": 17,
    "exit": [
     -115.156,
     36.144
    ],
    "safe": true
   },
   "geometry": {
    "type": "LineString",
    "coordinates": [
     [
      -115.16949,
      36.11319
     ],
     [
      -115.17091,
      36.11315
     ],
     [
      -115.17099,
      36.11355
     ],
     [
      -115.17125,
      36.1137
     ],
     [
      -115.17121,
      36.11458
     ],
     [
      -115.17277,
      36.11459
     ],
     [
      -115.17281,
      36.11748
     ],
     [
      -115.17263,
      36.11902
     ],
     [
      -115.17202,
      36.12093
     ],
     [
      -115.17098,
      36.12283
     ],
     [
      -115.1661,
      36.13012
     ],
     [
      -115.16561,
      36.13111
     ],
     [
      -115.16383,
      36.13007
     ],
     [
      -115.16256,
      36.12969
     ],
     [
      -115.15652,
      36.12975
     ],
     [
      -115.15476,
      36.1296
     ],
     [
      -115.15473,
      36.13612
     ]
    ]
   }
  },
  {
   "type": "Feature",
   "properties": {
    "route_id": "R2",
    "name": "South \u00b7 Russell Rd",
    "note": "Toward the airport and Russell",
    "length_m": 3756,
    "vertices": 4,
    "exit": [
     -115.172,
     36.082
    ],
    "safe": true
   },
   "geometry": {
    "type": "LineString",
    "coordinates": [
     [
      -115.16949,
      36.11319
     ],
     [
      -115.17279,
      36.11311
     ],
     [
      -115.17283,
      36.09714
     ],
     [
      -115.1726,
      36.08201
     ]
    ]
   }
  },
  {
   "type": "Feature",
   "properties": {
    "route_id": "R3",
    "name": "West \u00b7 I-15 / Valley View",
    "note": "Across the interstate to the west",
    "length_m": 2367,
    "vertices": 19,
    "exit": [
     -115.188,
     36.108
    ],
    "safe": true
   },
   "geometry": {
    "type": "LineString",
    "coordinates": [
     [
      -115.16949,
      36.11319
     ],
     [
      -115.17279,
      36.11311
     ],
     [
      -115.17281,
      36.11166
     ],
     [
      -115.17311,
      36.11152
     ],
     [
      -115.17314,
      36.10944
     ],
     [
      -115.1734,
      36.10925
     ],
     [
      -115.17622,
      36.10928
     ],
     [
      -115.17706,
      36.10899
     ],
     [
      -115.17827,
      36.10832
     ],
     [
      -115.17903,
      36.10818
     ],
     [
      -115.18463,
      36.10824
     ],
     [
      -115.18668,
      36.10843
     ],
     [
      -115.1869,
      36.1086
     ],
     [
      -115.18702,
      36.1093
     ],
     [
      -115.18752,
      36.1095
     ],
     [
      -115.18822,
      36.1092
     ],
     [
      -115.18857,
      36.10874
     ],
     [
      -115.18857,
      36.10846
     ],
     [
      -115.18795,
      36.10825
     ]
    ]
   }
  },
  {
   "type": "Feature",
   "properties": {
    "route_id": "R4",
    "name": "East \u00b7 Paradise Rd",
    "note": "Behind the resort line, to the east",
    "length_m": 2971,
    "vertices": 12,
    "exit": [
     -115.15,
     36.105
    ],
    "safe": true
   },
   "geometry": {
    "type": "LineString",
    "coordinates": [
     [
      -115.16949,
      36.11319
     ],
     [
      -115.17091,
      36.11315
     ],
     [
      -115.17107,
      36.11364
     ],
     [
      -115.17082,
      36.1138
     ],
     [
      -115.17078,
      36.11458
     ],
     [
      -115.15405,
      36.11425
     ],
     [
      -115.15224,
      36.10877
     ],
     [
      -115.15198,
      36.10831
     ],
     [
      -115.15151,
      36.10803
     ],
     [
      -115.15042,
      36.10801
     ],
     [
      -115.15034,
      36.1072
     ],
     [
      -115.14972,
      36.10521
     ]
    ]
   }
  }
 ]
}