{
 "type": "FeatureCollection",
 "features": [
  {
   "type": "Feature",
   "properties": {
    "zone_id": "Z1",
    "route_id": "R1",
    "entry_index": 4,
    "length_m": 782
   },
   "geometry": {
    "type": "LineString",
    "coordinates": [
     [
      -80.19316,
      25.76203
     ],
     [
      -80.19334,
      25.76738
     ],
     [
      -80.1952,
      25.76732
     ]
    ]
   }
  },
  {
   "type": "Feature",
   "properties": {
    "zone_id": "Z1",
    "route_id": "R2",
    "entry_index": 2,
    "length_m": 1257
   },
   "geometry": {
    "type": "LineString",
    "coordinates": [
     [
      -80.19316,
      25.76203
     ],
     [
      -80.19347,
      25.77089
     ],
     [
      -80.19359,
      25.77095
     ],
     [
      -80.19356,
      25.7729
     ],
     [
      -80.19383,
      25.77269
     ]
    ]
   }
  },
  {
   "type": "Feature",
   "properties": {
    "zone_id": "Z1",
    "route_id": "R3",
    "entry_index": 0,
    "length_m": 1389
   },
   "geometry": {
    "type": "LineString",
    "coordinates": [
     [
      -80.19316,
      25.76203
     ],
     [
      -80.19347,
      25.77089
     ],
     [
      -80.19359,
      25.77095
     ],
     [
      -80.19354,
      25.77252
     ],
     [
      -80.19562,
      25.77277
     ]
    ]
   }
  },
  {
   "type": "Feature",
   "properties": {
    "zone_id": "Z1",
    "route_id": "R4",
    "entry_index": 11,
    "length_m": 1652
   },
   "geometry": {
    "type": "LineString",
    "coordinates": [
     [
      -80.19316,
      25.76203
     ],
     [
      -80.19332,
      25.76642
     ],
     [
      -80.20075,
      25.76618
     ],
     [
      -80.20058,
      25.76527
     ],
     [
      -80.19992,
      25.76342
     ],
     [
      -80.1998,
      25.76254
     ]
    ]
   }
  },
  {
   "type": "Feature",
   "properties": {
    "zone_id": "Z2",
    "route_id": "R1",
    "entry_index": 1,
    "length_m": 671
   },
   "geometry": {
    "type": "LineString",
    "coordinates": [
     [
      -80.19093,
      25.77617
     ],
     [
      -80.19201,
      25.77613
     ],
     [
      -80.1919,
      25.77336
     ],
     [
      -80.19356,
      25.77331
     ],
     [
      -80.19354,
      25.77252
     ]
    ]
   }
  },
  {
   "type": "Feature",
   "properties": {
    "zone_id": "Z2",
    "route_id": "R2",
    "entry_index": 5,
    "length_m": 382
   },
   "geometry": {
    "type": "LineString",
    "coordinates": [
     [
      -80.19093,
      25.77617
     ],
     [
      -80.19033,
      25.77619
     ],
     [
      -80.19043,
      25.77908
     ]
    ]
   }
  },
  {
   "type": "Feature",
   "properties": {
    "zone_id": "Z2",
    "route_id": "R3",
    "entry_index": 0,
    "length_m": 847
   },
   "geometry": {
    "type": "LineString",
    "coordinates": [
     [
      -80.19093,
      25.77617
     ],
     [
      -80.19201,
      25.77613
     ],
     [
      -80.1919,
      25.77336
     ],
     [
      -80.19356,
      25.77331
     ],
     [
      -80.19356,
      25.7729
     ],
     [
      -80.19383,
      25.77269
     ],
     [
      -80.19489,
      25.77264
     ],
     [
      -80.19562,
      25.77277
     ]
    ]
   }
  },
  {
   "type": "Feature",
   "properties": {
    "zone_id": "Z2",
    "route_id": "R4",
    "entry_index": 1,
    "length_m": 772
   },
   "geometry": {
    "type": "LineString",
    "coordinates": [
     [
      -80.19093,
      25.77617
     ],
     [
      -80.19201,
      25.77613
     ],
     [
      -80.1919,
      25.77336
     ],
     [
      -80.19356,
      25.77331
     ],
     [
      -80.19356,
      25.7729
     ],
     [
      -80.19372,
      25.77273
     ],
     [
      -80.19489,
      25.77264
     ]
    ]
   }
  },
  {
   "type": "Feature",
   "properties": {
    "zone_id": "Z3",
    "route_id": "R1",
    "entry_index": 1,
    "length_m": 2971
   },
   "geometry": {
    "type": "LineString",
    "coordinates": [
     [
      -80.18793,
      25.79404
     ],
     [
      -80.18783,
      25.79367
     ],
     [
      -80.18899,
      25.79364
     ],
     [
      -80.18915,
      25.78838
     ],
     [
      -80.18906,
      25.7862
     ],
     [
      -80.1895,
      25.78462
     ],
     [
      -80.18957,
      25.78375
     ],
     [
      -80.18951,
      25.78136
     ],
     [
      -80.18916,
      25.78008
     ],
     [
      -80.19046,
      25.78003
     ],
     [
      -80.19043,
      25.77908
     ],
     [
      -80.19378,
      25.77898
     ],
     [
      -80.19354,
      25.77252
     ]
    ]
   }
  },
  {
   "type": "Feature",
   "properties": {
    "zone_id": "Z3",
    "route_id": "R2",
    "entry_index": 13,
    "length_m": 289
   },
   "geometry": {
    "type": "LineString",
    "coordinates": [
     [
      -80.18793,
      25.79404
     ],
     [
      -80.18783,
      25.79367
     ],
     [
      -80.18899,
      25.79364
     ],
     [
      -80.18898,
      25.79247
     ]
    ]
   }
  },
  {
   "type": "Feature",
   "properties": {
    "zone_id": "Z3",
    "route_id": "R3",
    "entry_index": 8,
    "length_m": 3769
   },
   "geometry": {
    "type": "LineString",
    "coordinates": [
     [
      -80.18793,
      25.79404
     ],
     [
      -80.18783,
      25.79367
     ],
     [
      -80.18899,
      25.79364
     ],
     [
      -80.18915,
      25.78838
     ],
     [
      -80.18906,
      25.7862
     ],
     [
      -80.1895,
      25.78462
     ],
     [
      -80.18957,
      25.78375
     ],
     [
      -80.18951,
      25.78136
     ],
     [
      -80.18916,
      25.78008
     ],
     [
      -80.19959,
      25.77975
     ],
     [
      -80.19979,
      25.7822
     ],
     [
      -80.20045,
      25.78291
     ],
     [
      -80.20212,
      25.78616
     ],
     [
      -80.20271,
      25.7872
     ],
     [
      -80.20285,
      25.78727
     ],
     [
      -80.20236,
      25.78627
     ]
    ]
   }
  },
  {
   "type": "Feature",
   "properties": {
    "zone_id": "Z3",
    "route_id": "R4",
    "entry_index": 1,
    "length_m": 3072
   },
   "geometry": {
    "type": "LineString",
    "coordinates": [
     [
      -80.18793,
      25.79404
     ],
     [
      -80.18783,
      25.79367
     ],
     [
      -80.18899,
      25.79364
     ],
     [
      -80.18915,
      25.78838
     ],
     [
      -80.18906,
      25.7862
     ],
     [
      -80.1895,
      25.78462
     ],
     [
      -80.18957,
      25.78375
     ],
     [
      -80.18951,
      25.78136
     ],
     [
      -80.18916,
      25.78008
     ],
     [
      -80.19046,
      25.78003
     ],
     [
      -80.19043,
      25.77908
     ],
     [
      -80.19378,
      25.77898
     ],
     [
      -80.19356,
      25.7729
     ],
     [
      -80.19383,
      25.77269
     ],
     [
      -80.19489,
      25.77264
     ]
    ]
   }
  },
  {
   "type": "Feature",
   "properties": {
    "zone_id": "Z4",
    "route_id": "R1",
    "entry_index": 1,
    "length_m": 2097
   },
   "geometry": {
    "type": "LineString",
    "coordinates": [
     [
      -80.18084,
      25.77904
     ],
     [
      -80.18345,
      25.78012
     ],
     [
      -80.1845,
      25.78034
     ],
     [
      -80.18559,
      25.78039
     ],
     [
      -80.18768,
      25.78021
     ],
     [
      -80.18815,
      25.77995
     ],
     [
      -80.18899,
      25.77912
     ],
     [
      -80.19378,
      25.77898
     ],
     [
      -80.19354,
      25.77252
     ]
    ]
   }
  },
  {
   "type": "Feature",
   "properties": {
    "zone_id": "Z4",
    "route_id": "R2",
    "entry_index": 7,
    "length_m": 865
   },
   "geometry": {
    "type": "LineString",
    "coordinates": [
     [
      -80.18084,
      25.77904
     ],
     [
      -80.18303,
      25.77998
     ],
     [
      -80.1845,
      25.78034
     ],
     [
      -80.18559,
      25.78039
     ],
     [
      -80.18916,
      25.78008
     ]
    ]
   }
  },
  {
   "type": "Feature",
   "properties": {
    "zone_id": "Z4",
    "route_id": "R3",
    "entry_index": 0,
    "length_m": 2273
   },
   "geometry": {
    "type": "LineString",
    "coordinates": [
     [
      -80.18084,
      25.77904
     ],
     [
      -80.18345,
      25.78012
     ],
     [
      -80.1845,
      25.78034
     ],
     [
      -80.18559,
      25.78039
     ],
     [
      -80.18768,
      25.78021
     ],
     [
      -80.18815,
      25.77995
     ],
     [
      -80.18899,
      25.77912
     ],
     [
      -80.19378,
      25.77898
     ],
     [
      -80.19356,
      25.7729
     ],
     [
      -80.19383,
      25.77269
     ],
     [
      -80.19434,
      25.77265
     ],
     [
      -80.19562,
      25.77277
     ]
    ]
   }
  },
  {
   "type": "Feature",
   "properties": {
    "zone_id": "Z4",
    "route_id": "R4",
    "entry_index": 1,
    "length_m": 2199
   },
   "geometry": {
    "type": "LineString",
    "coordinates": [
     [
      -80.18084,
      25.77904
     ],
     [
      -80.18345,
      25.78012
     ],
     [
      -80.1845,
      25.78034
     ],
     [
      -80.18559,
      25.78039
     ],
     [
      -80.18768,
      25.78021
     ],
     [
      -80.18815,
      25.77995
     ],
     [
      -80.18899,
      25.77912
     ],
     [
      -80.19378,
      25.77898
     ],
     [
      -80.19356,
      25.7729
     ],
     [
      -80.19383,
      25.77269
     ],
     [
      -80.19489,
      25.77264
     ]
    ]
   }
  },
  {
   "type": "Feature",
   "properties": {
    "zone_id": "Z5",
    "route_id": "R1",
    "entry_index": 8,
    "length_m": 1298
   },
   "geometry": {
    "type": "LineString",
    "coordinates": [
     [
      -80.21283,
      25.76878
     ],
     [
      -80.21278,
      25.76679
     ],
     [
      -80.22255,
      25.7665
     ],
     [
      -80.22251,
      25.76563
     ]
    ]
   }
  },
  {
   "type": "Feature",
   "properties": {
    "zone_id": "Z5",
    "route_id": "R2",
    "entry_index": 0,
    "length_m": 2853
   },
   "geometry": {
    "type": "LineString",
    "coordinates": [
     [
      -80.21283,
      25.76878
     ],
     [
      -80.21278,
      25.76679
     ],
     [
      -80.1952,
      25.76732
     ],
     [
      -80.19386,
      25.76814
     ],
     [
      -80.1936,
      25.76852
     ],
     [
      -80.19354,
      25.77252
     ],
     [
      -80.19562,
      25.77277
     ]
    ]
   }
  },
  {
   "type": "Feature",
   "properties": {
    "zone_id": "Z5",
    "route_id": "R3",
    "entry_index": 4,
    "length_m": 3442
   },
   "geometry": {
    "type": "LineString",
    "coordinates": [
     [
      -80.21283,
      25.76878
     ],
     [
      -80.21278,
      25.76679
     ],
     [
      -80.20747,
      25.76696
     ],
     [
      -80.20743,
      25.766
     ],
     [
      -80.19997,
      25.7662
     ],
     [
      -80.19944,
      25.76592
     ],
     [
      -80.19942,
      25.76565
     ],
     [
      -80.19962,
      25.76543
     ],
     [
      -80.20003,
      25.76543
     ],
     [
      -80.20025,
      25.76572
     ],
     [
      -80.20029,
      25.76736
     ],
     [
      -80.19978,
      25.76925
     ],
     [
      -80.1987,
      25.77178
     ],
     [
      -80.19858,
      25.77263
     ],
     [
      -80.19876,
      25.77369
     ],
     [
      -80.19953,
      25.77562
     ],
     [
      -80.19966,
      25.77667
     ],
     [
      -80.1996,
      25.7753
     ],
     [
      -80.19888,
      25.77354
     ]
    ]
   }
  },
  {
   "type": "Feature",
   "properties": {
    "zone_id": "Z5",
    "route_id": "R4",
    "entry_index": 8,
    "length_m": 2355
   },
   "geometry": {
    "type": "LineString",
    "coordinates": [
     [
      -80.21283,
      25.76878
     ],
     [
      -80.21278,
      25.76679
     ],
     [
      -80.20747,
      25.76696
     ],
     [
      -80.20743,
      25.766
     ],
     [
      -80.20075,
      25.76618
     ],
     [
      -80.20058,
      25.76527
     ],
     [
      -80.19992,
      25.76342
     ],
     [
      -80.20042,
      25.76595
     ],
     [
      -80.20035,
      25.76792
     ]
    ]
   }
  }
 ]
}