{
 "type": "FeatureCollection",
 "features": [
  {
   "type": "Feature",
   "properties": {
    "route_id": "R1",
    "name": "West \u00b7 SW 8th St (Tamiami)",
    "note": "Inland and out of Zone A",
    "length_m": 3824,
    "vertices": 11,
    "exit": [
     -80.223,
     25.765
    ]
   },
   "geometry": {
    "type": "LineString",
    "coordinates": [
     [
      -80.19562,
      25.77277
     ],
     [
      -80.19354,
      25.77252
     ],
     [
      -80.1936,
      25.76852
     ],
     [
      -80.19386,
      25.76814
     ],
     [
      -80.1952,
      25.76732
     ],
     [
      -80.19913,
      25.76721
     ],
     [
      -80.1991,
      25.76625
     ],
     [
      -80.1992,
      25.76624
     ],
     [
      -80.22251,
      25.76563
     ],
     [
      -80.22249,
      25.76483
     ],
     [
      -80.22263,
      25.76483
     ]
    ]
   }
  },
  {
   "type": "Feature",
   "properties": {
    "route_id": "R2",
    "name": "North \u00b7 Biscayne Blvd / I-95",
    "note": "Northbound off the peninsula",
    "length_m": 4016,
    "vertices": 17,
    "exit": [
     -80.19,
     25.802
    ]
   },
   "geometry": {
    "type": "LineString",
    "coordinates": [
     [
      -80.19562,
      25.77277
     ],
     [
      -80.19434,
      25.77265
     ],
     [
      -80.19383,
      25.77269
     ],
     [
      -80.19356,
      25.7729
     ],
     [
      -80.19378,
      25.77898
     ],
     [
      -80.19043,
      25.77908
     ],
     [
      -80.19046,
      25.78003
     ],
     [
      -80.18916,
      25.78008
     ],
     [
      -80.18951,
      25.78136
     ],
     [
      -80.18957,
      25.78375
     ],
     [
      -80.1895,
      25.78462
     ],
     [
      -80.18906,
      25.7862
     ],
     [
      -80.18915,
      25.78838
     ],
     [
      -80.18898,
      25.79247
     ],
     [
      -80.18914,
      25.80095
     ],
     [
      -80.18921,
      25.80227
     ],
     [
      -80.18989,
      25.80225
     ]
    ]
   }
  },
  {
   "type": "Feature",
   "properties": {
    "route_id": "R3",
    "name": "West \u00b7 SR-836 Dolphin Expwy",
    "note": "The designated westbound evacuation route",
    "length_m": 4405,
    "vertices": 22,
    "exit": [
     -80.222,
     25.785
    ]
   },
   "geometry": {
    "type": "LineString",
    "coordinates": [
     [
      -80.19562,
      25.77277
     ],
     [
      -80.19685,
      25.77304
     ],
     [
      -80.19825,
      25.77304
     ],
     [
      -80.1986,
      25.7732
     ],
     [
      -80.19888,
      25.77354
     ],
     [
      -80.19967,
      25.77566
     ],
     [
      -80.1998,
      25.78007
     ],
     [
      -80.20015,
      25.78179
     ],
     [
      -80.20236,
      25.78627
     ],
     [
      -80.20373,
      25.78852
     ],
     [
      -80.20429,
      25.78904
     ],
     [
      -80.20502,
      25.78925
     ],
     [
      -80.20591,
      25.78928
     ],
     [
      -80.2075,
      25.789
     ],
     [
      -80.21211,
      25.78679
     ],
     [
      -80.21445,
      25.78597
     ],
     [
      -80.21531,
      25.78551
     ],
     [
      -80.21869,
      25.78542
     ],
     [
      -80.22263,
      25.78685
     ],
     [
      -80.22284,
      25.78675
     ],
     [
      -80.22292,
      25.78653
     ],
     [
      -80.22293,
      25.78492
     ]
    ]
   }
  },
  {
   "type": "Feature",
   "properties": {
    "route_id": "R4",
    "name": "South \u00b7 US-1 South Dixie",
    "note": "Southbound along the ridge",
    "length_m": 4324,
    "vertices": 26,
    "exit": [
     -80.205,
     25.748
    ]
   },
   "geometry": {
    "type": "LineString",
    "coordinates": [
     [
      -80.19562,
      25.77277
     ],
     [
      -80.19489,
      25.77264
     ],
     [
      -80.19544,
      25.77262
     ],
     [
      -80.19729,
      25.77296
     ],
     [
      -80.19785,
      25.77285
     ],
     [
      -80.19835,
      25.77258
     ],
     [
      -80.19879,
      25.77204
     ],
     [
      -80.19994,
      25.7695
     ],
     [
      -80.20035,
      25.76792
     ],
     [
      -80.20046,
      25.76686
     ],
     [
      -80.20035,
      25.76542
     ],
     [
      -80.1998,
      25.76254
     ],
     [
      -80.19992,
      25.7579
     ],
     [
      -80.20029,
      25.7567
     ],
     [
      -80.20093,
      25.75592
     ],
     [
      -80.20243,
      25.75482
     ],
     [
      -80.20395,
      25.75403
     ],
     [
      -80.2057,
      25.75286
     ],
     [
      -80.20576,
      25.75256
     ],
     [
      -80.20487,
      25.75135
     ],
     [
      -80.20652,
      25.75007
     ],
     [
      -80.20993,
      25.74771
     ],
     [
      -80.20918,
      25.74682
     ],
     [
      -80.208,
      25.74762
     ],
     [
      -80.20791,
      25.74751
     ],
     [
      -80.20605,
      25.74878
     ]
    ]
   }
  }
 ]
}