{
 "type": "FeatureCollection",
 "features": [
  {
   "type": "Feature",
   "properties": {
    "zone_id": "Z1",
    "route_id": "R1",
    "entry_index": 5,
    "length_m": 1043
   },
   "geometry": {
    "type": "LineString",
    "coordinates": [
     [
      -74.0098,
      40.70592
     ],
     [
      -74.00982,
      40.70578
     ],
     [
      -74.00905,
      40.70557
     ],
     [
      -74.00904,
      40.70532
     ],
     [
      -74.00811,
      40.70542
     ],
     [
      -74.00794,
      40.70554
     ],
     [
      -74.00741,
      40.70518
     ],
     [
      -74.00407,
      40.70744
     ],
     [
      -74.00155,
      40.7096
     ],
     [
      -74.00117,
      40.70967
     ],
     [
      -74.0009,
      40.70959
     ],
     [
      -74.00097,
      40.70965
     ]
    ]
   }
  },
  {
   "type": "Feature",
   "properties": {
    "zone_id": "Z1",
    "route_id": "R2",
    "entry_index": 1,
    "length_m": 1397
   },
   "geometry": {
    "type": "LineString",
    "coordinates": [
     [
      -74.0098,
      40.70592
     ],
     [
      -74.00982,
      40.70578
     ],
     [
      -74.00905,
      40.70557
     ],
     [
      -74.00904,
      40.70532
     ],
     [
      -74.00811,
      40.70542
     ],
     [
      -74.00794,
      40.70554
     ],
     [
      -74.00741,
      40.70518
     ],
     [
      -74.00407,
      40.70744
     ],
     [
      -74.00162,
      40.70952
     ],
     [
      -74.00049,
      40.711
     ],
     [
      -74.00088,
      40.7116
     ],
     [
      -74.00083,
      40.71308
     ]
    ]
   }
  },
  {
   "type": "Feature",
   "properties": {
    "zone_id": "Z1",
    "route_id": "R3",
    "entry_index": 1,
    "length_m": 1397
   },
   "geometry": {
    "type": "LineString",
    "coordinates": [
     [
      -74.0098,
      40.70592
     ],
     [
      -74.00982,
      40.70578
     ],
     [
      -74.00905,
      40.70557
     ],
     [
      -74.00904,
      40.70532
     ],
     [
      -74.00811,
      40.70542
     ],
     [
      -74.00794,
      40.70554
     ],
     [
      -74.00741,
      40.70518
     ],
     [
      -74.00407,
      40.70744
     ],
     [
      -74.00162,
      40.70952
     ],
     [
      -74.00049,
      40.711
     ],
     [
      -74.00088,
      40.7116
     ],
     [
      -74.00083,
      40.71308
     ]
    ]
   }
  },
  {
   "type": "Feature",
   "properties": {
    "zone_id": "Z1",
    "route_id": "R4",
    "entry_index": 1,
    "length_m": 1438
   },
   "geometry": {
    "type": "LineString",
    "coordinates": [
     [
      -74.0098,
      40.70592
     ],
     [
      -74.009,
      40.70696
     ],
     [
      -74.01127,
      40.70832
     ],
     [
      -74.00875,
      40.71135
     ],
     [
      -74.0084,
      40.71132
     ],
     [
      -74.00605,
      40.71192
     ],
     [
      -74.00611,
      40.71203
     ],
     [
      -74.00497,
      40.7124
     ],
     [
      -74.0026,
      40.71429
     ]
    ]
   }
  },
  {
   "type": "Feature",
   "properties": {
    "zone_id": "Z1",
    "route_id": "R5",
    "entry_index": 1,
    "length_m": 1397
   },
   "geometry": {
    "type": "LineString",
    "coordinates": [
     [
      -74.0098,
      40.70592
     ],
     [
      -74.00982,
      40.70578
     ],
     [
      -74.00905,
      40.70557
     ],
     [
      -74.00904,
      40.70532
     ],
     [
      -74.00811,
      40.70542
     ],
     [
      -74.00794,
      40.70554
     ],
     [
      -74.00741,
      40.70518
     ],
     [
      -74.00407,
      40.70744
     ],
     [
      -74.00162,
      40.70952
     ],
     [
      -74.00049,
      40.711
     ],
     [
      -74.00088,
      40.7116
     ],
     [
      -74.00083,
      40.71308
     ]
    ]
   }
  },
  {
   "type": "Feature",
   "properties": {
    "zone_id": "Z1",
    "route_id": "T1",
    "entry_index": 11,
    "length_m": 652
   },
   "geometry": {
    "type": "LineString",
    "coordinates": [
     [
      -74.0098,
      40.70592
     ],
     [
      -74.009,
      40.70696
     ],
     [
      -74.01127,
      40.70832
     ],
     [
      -74.00952,
      40.71039
     ]
    ]
   }
  },
  {
   "type": "Feature",
   "properties": {
    "zone_id": "Z1",
    "route_id": "T2",
    "entry_index": 6,
    "length_m": 921
   },
   "geometry": {
    "type": "LineString",
    "coordinates": [
     [
      -74.0098,
      40.70592
     ],
     [
      -74.009,
      40.70696
     ],
     [
      -74.01127,
      40.70832
     ],
     [
      -74.00813,
      40.71199
     ],
     [
      -74.00767,
      40.71167
     ]
    ]
   }
  },
  {
   "type": "Feature",
   "properties": {
    "zone_id": "Z1",
    "route_id": "T3",
    "entry_index": 9,
    "length_m": 604
   },
   "geometry": {
    "type": "LineString",
    "coordinates": [
     [
      -74.0098,
      40.70592
     ],
     [
      -74.00999,
      40.70524
     ],
     [
      -74.00977,
      40.70481
     ],
     [
      -74.0078,
      40.703
     ],
     [
      -74.00916,
      40.70214
     ],
     [
      -74.00959,
      40.70201
     ],
     [
      -74.00935,
      40.70212
     ]
    ]
   }
  },
  {
   "type": "Feature",
   "properties": {
    "zone_id": "Z1",
    "route_id": "T4",
    "entry_index": 8,
    "length_m": 888
   },
   "geometry": {
    "type": "LineString",
    "coordinates": [
     [
      -74.0098,
      40.70592
     ],
     [
      -74.00999,
      40.70524
     ],
     [
      -74.00977,
      40.70481
     ],
     [
      -74.0078,
      40.703
     ],
     [
      -74.00916,
      40.70214
     ],
     [
      -74.00959,
      40.70201
     ],
     [
      -74.00673,
      40.70373
     ]
    ]
   }
  },
  {
   "type": "Feature",
   "properties": {
    "zone_id": "Z1",
    "route_id": "T5",
    "entry_index": 1,
    "length_m": 1438
   },
   "geometry": {
    "type": "LineString",
    "coordinates": [
     [
      -74.0098,
      40.70592
     ],
     [
      -74.009,
      40.70696
     ],
     [
      -74.01127,
      40.70832
     ],
     [
      -74.00875,
      40.71135
     ],
     [
      -74.0084,
      40.71132
     ],
     [
      -74.00605,
      40.71192
     ],
     [
      -74.00611,
      40.71203
     ],
     [
      -74.00497,
      40.7124
     ],
     [
      -74.0026,
      40.71429
     ]
    ]
   }
  },
  {
   "type": "Feature",
   "properties": {
    "zone_id": "Z1",
    "route_id": "T6",
    "entry_index": 1,
    "length_m": 1397
   },
   "geometry": {
    "type": "LineString",
    "coordinates": [
     [
      -74.0098,
      40.70592
     ],
     [
      -74.00982,
      40.70578
     ],
     [
      -74.00905,
      40.70557
     ],
     [
      -74.00904,
      40.70532
     ],
     [
      -74.00811,
      40.70542
     ],
     [
      -74.00794,
      40.70554
     ],
     [
      -74.00741,
      40.70518
     ],
     [
      -74.00407,
      40.70744
     ],
     [
      -74.00162,
      40.70952
     ],
     [
      -74.00049,
      40.711
     ],
     [
      -74.00088,
      40.7116
     ],
     [
      -74.00083,
      40.71308
     ]
    ]
   }
  },
  {
   "type": "Feature",
   "properties": {
    "zone_id": "Z1",
    "route_id": "T7",
    "entry_index": 1,
    "length_m": 1438
   },
   "geometry": {
    "type": "LineString",
    "coordinates": [
     [
      -74.0098,
      40.70592
     ],
     [
      -74.009,
      40.70696
     ],
     [
      -74.01127,
      40.70832
     ],
     [
      -74.00875,
      40.71135
     ],
     [
      -74.0084,
      40.71132
     ],
     [
      -74.00605,
      40.71192
     ],
     [
      -74.00611,
      40.71203
     ],
     [
      -74.00497,
      40.7124
     ],
     [
      -74.0026,
      40.71429
     ]
    ]
   }
  },
  {
   "type": "Feature",
   "properties": {
    "zone_id": "Z2",
    "route_id": "R1",
    "entry_index": 4,
    "length_m": 1841
   },
   "geometry": {
    "type": "LineString",
    "coordinates": [
     [
      -74.01575,
      40.71195
     ],
     [
      -74.01578,
      40.71158
     ],
     [
      -74.01466,
      40.71112
     ],
     [
      -74.01398,
      40.71369
     ],
     [
      -74.01394,
      40.71379
     ],
     [
      -74.01371,
      40.7137
     ],
     [
      -74.01342,
      40.71443
     ],
     [
      -74.00823,
      40.71206
     ],
     [
      -74.00771,
      40.71168
     ],
     [
      -74.00707,
      40.71179
     ],
     [
      -74.00697,
      40.7117
     ],
     [
      -74.00523,
      40.712
     ],
     [
      -74.00297,
      40.71052
     ],
     [
      -74.00166,
      40.70949
     ],
     [
      -74.00121,
      40.71006
     ]
    ]
   }
  },
  {
   "type": "Feature",
   "properties": {
    "zone_id": "Z2",
    "route_id": "R2",
    "entry_index": 0,
    "length_m": 1803
   },
   "geometry": {
    "type": "LineString",
    "coordinates": [
     [
      -74.01575,
      40.71195
     ],
     [
      -74.01578,
      40.71158
     ],
     [
      -74.01466,
      40.71112
     ],
     [
      -74.01398,
      40.71369
     ],
     [
      -74.01394,
      40.71379
     ],
     [
      -74.01371,
      40.7137
     ],
     [
      -74.01342,
      40.71443
     ],
     [
      -74.00823,
      40.71206
     ],
     [
      -74.00767,
      40.71167
     ],
     [
      -74.0054,
      40.71217
     ],
     [
      -74.00443,
      40.71185
     ],
     [
      -74.00388,
      40.7119
     ],
     [
      -74.0025,
      40.71269
     ],
     [
      -74.00083,
      40.71308
     ],
     [
      -74.00097,
      40.71333
     ]
    ]
   }
  },
  {
   "type": "Feature",
   "properties": {
    "zone_id": "Z2",
    "route_id": "R3",
    "entry_index": 0,
    "length_m": 1803
   },
   "geometry": {
    "type": "LineString",
    "coordinates": [
     [
      -74.01575,
      40.71195
     ],
     [
      -74.01578,
      40.71158
     ],
     [
      -74.01466,
      40.71112
     ],
     [
      -74.01398,
      40.71369
     ],
     [
      -74.01394,
      40.71379
     ],
     [
      -74.01371,
      40.7137
     ],
     [
      -74.01342,
      40.71443
     ],
     [
      -74.00823,
      40.71206
     ],
     [
      -74.00767,
      40.71167
     ],
     [
      -74.0054,
      40.71217
     ],
     [
      -74.00443,
      40.71185
     ],
     [
      -74.00388,
      40.7119
     ],
     [
      -74.0025,
      40.71269
     ],
     [
      -74.00083,
      40.71308
     ],
     [
      -74.00097,
      40.71333
     ]
    ]
   }
  },
  {
   "type": "Feature",
   "properties": {
    "zone_id": "Z2",
    "route_id": "R4",
    "entry_index": 1,
    "length_m": 1681
   },
   "geometry": {
    "type": "LineString",
    "coordinates": [
     [
      -74.01575,
      40.71195
     ],
     [
      -74.01578,
      40.71158
     ],
     [
      -74.01466,
      40.71112
     ],
     [
      -74.01398,
      40.71369
     ],
     [
      -74.01394,
      40.71379
     ],
     [
      -74.01371,
      40.7137
     ],
     [
      -74.01342,
      40.71443
     ],
     [
      -74.00823,
      40.71206
     ],
     [
      -74.00767,
      40.71167
     ],
     [
      -74.00576,
      40.71211
     ],
     [
      -74.00497,
      40.7124
     ],
     [
      -74.0026,
      40.71429
     ]
    ]
   }
  },
  {
   "type": "Feature",
   "properties": {
    "zone_id": "Z2",
    "route_id": "R5",
    "entry_index": 0,
    "length_m": 1803
   },
   "geometry": {
    "type": "LineString",
    "coordinates": [
     [
      -74.01575,
      40.71195
     ],
     [
      -74.01578,
      40.71158
     ],
     [
      -74.01466,
      40.71112
     ],
     [
      -74.01398,
      40.71369
     ],
     [
      -74.01394,
      40.71379
     ],
     [
      -74.01371,
      40.7137
     ],
     [
      -74.01342,
      40.71443
     ],
     [
      -74.00823,
      40.71206
     ],
     [
      -74.00767,
      40.71167
     ],
     [
      -74.0054,
      40.71217
     ],
     [
      -74.00443,
      40.71185
     ],
     [
      -74.00388,
      40.7119
     ],
     [
      -74.0025,
      40.71269
     ],
     [
      -74.00083,
      40.71308
     ],
     [
      -74.00097,
      40.71333
     ]
    ]
   }
  },
  {
   "type": "Feature",
   "properties": {
    "zone_id": "Z2",
    "route_id": "T1",
    "entry_index": 11,
    "length_m": 810
   },
   "geometry": {
    "type": "LineString",
    "coordinates": [
     [
      -74.01575,
      40.71195
     ],
     [
      -74.01578,
      40.71158
     ],
     [
      -74.01412,
      40.71092
     ],
     [
      -74.01271,
      40.71019
     ],
     [
      -74.01284,
      40.70968
     ],
     [
      -74.01086,
      40.70882
     ],
     [
      -74.00952,
      40.71039
     ]
    ]
   }
  },
  {
   "type": "Feature",
   "properties": {
    "zone_id": "Z2",
    "route_id": "T2",
    "entry_index": 9,
    "length_m": 646
   },
   "geometry": {
    "type": "LineString",
    "coordinates": [
     [
      -74.01575,
      40.71195
     ],
     [
      -74.01578,
      40.71158
     ],
     [
      -74.0144,
      40.711
     ],
     [
      -74.01398,
      40.7129
     ],
     [
      -74.01199,
      40.71208
     ],
     [
      -74.01178,
      40.71262
     ]
    ]
   }
  },
  {
   "type": "Feature",
   "properties": {
    "zone_id": "Z2",
    "route_id": "T3",
    "entry_index": 11,
    "length_m": 1478
   },
   "geometry": {
    "type": "LineString",
    "coordinates": [
     [
      -74.01575,
      40.71195
     ],
     [
      -74.01578,
      40.71158
     ],
     [
      -74.01466,
      40.71112
     ],
     [
      -74.01678,
      40.70484
     ],
     [
      -74.01672,
      40.7041
     ],
     [
      -74.01604,
      40.70234
     ],
     [
      -74.01541,
      40.70164
     ],
     [
      -74.01447,
      40.70123
     ],
     [
      -74.01365,
      40.70115
     ],
     [
      -74.01295,
      40.70124
     ]
    ]
   }
  },
  {
   "type": "Feature",
   "properties": {
    "zone_id": "Z2",
    "route_id": "T4",
    "entry_index": 8,
    "length_m": 2083
   },
   "geometry": {
    "type": "LineString",
    "coordinates": [
     [
      -74.01575,
      40.71195
     ],
     [
      -74.01578,
      40.71158
     ],
     [
      -74.01466,
      40.71112
     ],
     [
      -74.01628,
      40.70647
     ],
     [
      -74.01679,
      40.70453
     ],
     [
      -74.01604,
      40.70234
     ],
     [
      -74.01555,
      40.70176
     ],
     [
      -74.01492,
      40.70136
     ],
     [
      -74.01402,
      40.70116
     ],
     [
      -74.0134,
      40.70117
     ],
     [
      -74.01194,
      40.70144
     ],
     [
      -74.00963,
      40.70199
     ],
     [
      -74.00673,
      40.70373
     ]
    ]
   }
  },
  {
   "type": "Feature",
   "properties": {
    "zone_id": "Z2",
    "route_id": "T5",
    "entry_index": 1,
    "length_m": 1681
   },
   "geometry": {
    "type": "LineString",
    "coordinates": [
     [
      -74.01575,
      40.71195
     ],
     [
      -74.01578,
      40.71158
     ],
     [
      -74.01466,
      40.71112
     ],
     [
      -74.01398,
      40.71369
     ],
     [
      -74.01394,
      40.71379
     ],
     [
      -74.01371,
      40.7137
     ],
     [
      -74.01342,
      40.71443
     ],
     [
      -74.00823,
      40.71206
     ],
     [
      -74.00767,
      40.71167
     ],
     [
      -74.00576,
      40.71211
     ],
     [
      -74.00497,
      40.7124
     ],
     [
      -74.0026,
      40.71429
     ]
    ]
   }
  },
  {
   "type": "Feature",
   "properties": {
    "zone_id": "Z2",
    "route_id": "T6",
    "entry_index": 0,
    "length_m": 1803
   },
   "geometry": {
    "type": "LineString",
    "coordinates": [
     [
      -74.01575,
      40.71195
     ],
     [
      -74.01578,
      40.71158
     ],
     [
      -74.01466,
      40.71112
     ],
     [
      -74.01398,
      40.71369
     ],
     [
      -74.01394,
      40.71379
     ],
     [
      -74.01371,
      40.7137
     ],
     [
      -74.01342,
      40.71443
     ],
     [
      -74.00823,
      40.71206
     ],
     [
      -74.00767,
      40.71167
     ],
     [
      -74.0054,
      40.71217
     ],
     [
      -74.00443,
      40.71185
     ],
     [
      -74.00388,
      40.7119
     ],
     [
      -74.0025,
      40.71269
     ],
     [
      -74.00083,
      40.71308
     ],
     [
      -74.00097,
      40.71333
     ]
    ]
   }
  },
  {
   "type": "Feature",
   "properties": {
    "zone_id": "Z2",
    "route_id": "T7",
    "entry_index": 1,
    "length_m": 1681
   },
   "geometry": {
    "type": "LineString",
    "coordinates": [
     [
      -74.01575,
      40.71195
     ],
     [
      -74.01578,
      40.71158
     ],
     [
      -74.01466,
      40.71112
     ],
     [
      -74.01398,
      40.71369
     ],
     [
      -74.01394,
      40.71379
     ],
     [
      -74.01371,
      40.7137
     ],
     [
      -74.01342,
      40.71443
     ],
     [
      -74.00823,
      40.71206
     ],
     [
      -74.00767,
      40.71167
     ],
     [
      -74.00576,
      40.71211
     ],
     [
      -74.00497,
      40.7124
     ],
     [
      -74.0026,
      40.71429
     ]
    ]
   }
  },
  {
   "type": "Feature",
   "properties": {
    "zone_id": "Z3",
    "route_id": "R1",
    "entry_index": 11,
    "length_m": 1269
   },
   "geometry": {
    "type": "LineString",
    "coordinates": [
     [
      -73.99435,
      40.71159
     ],
     [
      -73.99435,
      40.71232
     ],
     [
      -73.99686,
      40.71211
     ],
     [
      -73.99971,
      40.71179
     ],
     [
      -74.0006,
      40.7109
     ],
     [
      -74.00121,
      40.71006
     ],
     [
      -74.00097,
      40.70965
     ],
     [
      -74.00035,
      40.7091
     ],
     [
      -74.00013,
      40.70847
     ],
     [
      -73.99988,
      40.70822
     ],
     [
      -73.99916,
      40.70813
     ],
     [
      -73.99818,
      40.70855
     ],
     [
      -73.9971,
      40.70884
     ]
    ]
   }
  },
  {
   "type": "Feature",
   "properties": {
    "zone_id": "Z3",
    "route_id": "R2",
    "entry_index": 7,
    "length_m": 213
   },
   "geometry": {
    "type": "LineString",
    "coordinates": [
     [
      -73.99435,
      40.71159
     ],
     [
      -73.99251,
      40.71176
     ],
     [
      -73.99238,
      40.71129
     ]
    ]
   }
  },
  {
   "type": "Feature",
   "properties": {
    "zone_id": "Z3",
    "route_id": "R3",
    "entry_index": 6,
    "length_m": 473
   },
   "geometry": {
    "type": "LineString",
    "coordinates": [
     [
      -73.99435,
      40.71159
     ],
     [
      -73.99435,
      40.71232
     ],
     [
      -73.99695,
      40.71208
     ],
     [
      -73.99737,
      40.71346
     ]
    ]
   }
  },
  {
   "type": "Feature",
   "properties": {
    "zone_id": "Z3",
    "route_id": "R4",
    "entry_index": 0,
    "length_m": 824
   },
   "geometry": {
    "type": "LineString",
    "coordinates": [
     [
      -73.99435,
      40.71159
     ],
     [
      -73.99435,
      40.71232
     ],
     [
      -74.00085,
      40.71172
     ],
     [
      -74.00083,
      40.71308
     ],
     [
      -74.00097,
      40.71333
     ]
    ]
   }
  },
  {
   "type": "Feature",
   "properties": {
    "zone_id": "Z3",
    "route_id": "R5",
    "entry_index": 3,
    "length_m": 547
   },
   "geometry": {
    "type": "LineString",
    "coordinates": [
     [
      -73.99435,
      40.71159
     ],
     [
      -73.99455,
      40.71361
     ],
     [
      -73.99484,
      40.71423
     ],
     [
      -73.99743,
      40.7141
     ],
     [
      -73.99764,
      40.71401
     ]
    ]
   }
  },
  {
   "type": "Feature",
   "properties": {
    "zone_id": "Z3",
    "route_id": "T1",
    "entry_index": 1,
    "length_m": 793
   },
   "geometry": {
    "type": "LineString",
    "coordinates": [
     [
      -73.99435,
      40.71159
     ],
     [
      -73.99435,
      40.71232
     ],
     [
      -74.00085,
      40.71172
     ],
     [
      -74.00083,
      40.71308
     ]
    ]
   }
  },
  {
   "type": "Feature",
   "properties": {
    "zone_id": "Z3",
    "route_id": "T2",
    "entry_index": 1,
    "length_m": 793
   },
   "geometry": {
    "type": "LineString",
    "coordinates": [
     [
      -73.99435,
      40.71159
     ],
     [
      -73.99435,
      40.71232
     ],
     [
      -74.00085,
      40.71172
     ],
     [
      -74.00083,
      40.71308
     ]
    ]
   }
  },
  {
   "type": "Feature",
   "properties": {
    "zone_id": "Z3",
    "route_id": "T3",
    "entry_index": 3,
    "length_m": 654
   },
   "geometry": {
    "type": "LineString",
    "coordinates": [
     [
      -73.99435,
      40.71159
     ],
     [
      -73.99435,
      40.71232
     ],
     [
      -73.99686,
      40.71211
     ],
     [
      -73.99971,
      40.71179
     ],
     [
      -74.00049,
      40.711
     ]
    ]
   }
  },
  {
   "type": "Feature",
   "properties": {
    "zone_id": "Z3",
    "route_id": "T4",
    "entry_index": 3,
    "length_m": 654
   },
   "geometry": {
    "type": "LineString",
    "coordinates": [
     [
      -73.99435,
      40.71159
     ],
     [
      -73.99435,
      40.71232
     ],
     [
      -73.99686,
      40.71211
     ],
     [
      -73.99971,
      40.71179
     ],
     [
      -74.00049,
      40.711
     ]
    ]
   }
  },
  {
   "type": "Feature",
   "properties": {
    "zone_id": "Z3",
    "route_id": "T5",
    "entry_index": 0,
    "length_m": 824
   },
   "geometry": {
    "type": "LineString",
    "coordinates": [
     [
      -73.99435,
      40.71159
     ],
     [
      -73.99435,
      40.71232
     ],
     [
      -74.00085,
      40.71172
     ],
     [
      -74.00083,
      40.71308
     ],
     [
      -74.00097,
      40.71333
     ]
    ]
   }
  },
  {
   "type": "Feature",
   "properties": {
    "zone_id": "Z3",
    "route_id": "T6",
    "entry_index": 3,
    "length_m": 547
   },
   "geometry": {
    "type": "LineString",
    "coordinates": [
     [
      -73.99435,
      40.71159
     ],
     [
      -73.99455,
      40.71361
     ],
     [
      -73.99484,
      40.71423
     ],
     [
      -73.99743,
      40.7141
     ],
     [
      -73.99764,
      40.71401
     ]
    ]
   }
  },
  {
   "type": "Feature",
   "properties": {
    "zone_id": "Z3",
    "route_id": "T7",
    "entry_index": 0,
    "length_m": 824
   },
   "geometry": {
    "type": "LineString",
    "coordinates": [
     [
      -73.99435,
      40.71159
     ],
     [
      -73.99435,
      40.71232
     ],
     [
      -74.00085,
      40.71172
     ],
     [
      -74.00083,
      40.71308
     ],
     [
      -74.00097,
      40.71333
     ]
    ]
   }
  },
  {
   "type": "Feature",
   "properties": {
    "zone_id": "Z4",
    "route_id": "R1",
    "entry_index": 12,
    "length_m": 1999
   },
   "geometry": {
    "type": "LineString",
    "coordinates": [
     [
      -73.98342,
      40.71853
     ],
     [
      -73.98424,
      40.71695
     ],
     [
      -73.98339,
      40.71669
     ],
     [
      -73.98336,
      40.71658
     ],
     [
      -73.98484,
      40.7143
     ],
     [
      -73.98509,
      40.71361
     ],
     [
      -73.98466,
      40.71048
     ],
     [
      -73.98149,
      40.71075
     ],
     [
      -73.9846,
      40.71053
     ],
     [
      -73.99013,
      40.70988
     ]
    ]
   }
  },
  {
   "type": "Feature",
   "properties": {
    "zone_id": "Z4",
    "route_id": "R2",
    "entry_index": 6,
    "length_m": 1394
   },
   "geometry": {
    "type": "LineString",
    "coordinates": [
     [
      -73.98342,
      40.71853
     ],
     [
      -73.984,
      40.71743
     ],
     [
      -73.98565,
      40.71793
     ],
     [
      -73.9855,
      40.71776
     ],
     [
      -73.99021,
      40.71925
     ],
     [
      -73.99238,
      40.71505
     ],
     [
      -73.99256,
      40.71439
     ],
     [
      -73.99281,
      40.71437
     ],
     [
      -73.99276,
      40.71385
     ]
    ]
   }
  },
  {
   "type": "Feature",
   "properties": {
    "zone_id": "Z4",
    "route_id": "R3",
    "entry_index": 9,
    "length_m": 258
   },
   "geometry": {
    "type": "LineString",
    "coordinates": [
     [
      -73.98342,
      40.71853
     ],
     [
      -73.98424,
      40.71695
     ],
     [
      -73.98348,
      40.71672
     ]
    ]
   }
  },
  {
   "type": "Feature",
   "properties": {
    "zone_id": "Z4",
    "route_id": "R4",
    "entry_index": 3,
    "length_m": 1835
   },
   "geometry": {
    "type": "LineString",
    "coordinates": [
     [
      -73.98342,
      40.71853
     ],
     [
      -73.984,
      40.71743
     ],
     [
      -73.98565,
      40.71793
     ],
     [
      -73.9855,
      40.71776
     ],
     [
      -73.99375,
      40.72032
     ],
     [
      -73.99399,
      40.7203
     ],
     [
      -73.9974,
      40.72146
     ],
     [
      -73.99767,
      40.72076
     ],
     [
      -73.99995,
      40.71802
     ]
    ]
   }
  },
  {
   "type": "Feature",
   "properties": {
    "zone_id": "Z4",
    "route_id": "R5",
    "entry_index": 5,
    "length_m": 1285
   },
   "geometry": {
    "type": "LineString",
    "coordinates": [
     [
      -73.98342,
      40.71853
     ],
     [
      -73.984,
      40.71743
     ],
     [
      -73.98565,
      40.71793
     ],
     [
      -73.9855,
      40.71776
     ],
     [
      -73.99375,
      40.72032
     ],
     [
      -73.99399,
      40.7203
     ],
     [
      -73.99478,
      40.71854
     ]
    ]
   }
  },
  {
   "type": "Feature",
   "properties": {
    "zone_id": "Z4",
    "route_id": "T1",
    "entry_index": 1,
    "length_m": 2139
   },
   "geometry": {
    "type": "LineString",
    "coordinates": [
     [
      -73.98342,
      40.71853
     ],
     [
      -73.984,
      40.71743
     ],
     [
      -73.98565,
      40.71793
     ],
     [
      -73.9855,
      40.71776
     ],
     [
      -73.99375,
      40.72032
     ],
     [
      -73.99399,
      40.7203
     ],
     [
      -73.99538,
      40.71738
     ],
     [
      -73.99758,
      40.71407
     ],
     [
      -73.99891,
      40.71341
     ],
     [
      -74.00083,
      40.71308
     ]
    ]
   }
  },
  {
   "type": "Feature",
   "properties": {
    "zone_id": "Z4",
    "route_id": "T2",
    "entry_index": 1,
    "length_m": 2139
   },
   "geometry": {
    "type": "LineString",
    "coordinates": [
     [
      -73.98342,
      40.71853
     ],
     [
      -73.984,
      40.71743
     ],
     [
      -73.98565,
      40.71793
     ],
     [
      -73.9855,
      40.71776
     ],
     [
      -73.99375,
      40.72032
     ],
     [
      -73.99399,
      40.7203
     ],
     [
      -73.99538,
      40.71738
     ],
     [
      -73.99758,
      40.71407
     ],
     [
      -73.99891,
      40.71341
     ],
     [
      -74.00083,
      40.71308
     ]
    ]
   }
  },
  {
   "type": "Feature",
   "properties": {
    "zone_id": "Z4",
    "route_id": "T3",
    "entry_index": 1,
    "length_m": 2139
   },
   "geometry": {
    "type": "LineString",
    "coordinates": [
     [
      -73.98342,
      40.71853
     ],
     [
      -73.984,
      40.71743
     ],
     [
      -73.98565,
      40.71793
     ],
     [
      -73.9855,
      40.71776
     ],
     [
      -73.99375,
      40.72032
     ],
     [
      -73.99399,
      40.7203
     ],
     [
      -73.99538,
      40.71738
     ],
     [
      -73.99758,
      40.71407
     ],
     [
      -73.99891,
      40.71341
     ],
     [
      -74.00083,
      40.71308
     ]
    ]
   }
  },
  {
   "type": "Feature",
   "properties": {
    "zone_id": "Z4",
    "route_id": "T4",
    "entry_index": 1,
    "length_m": 2139
   },
   "geometry": {
    "type": "LineString",
    "coordinates": [
     [
      -73.98342,
      40.71853
     ],
     [
      -73.984,
      40.71743
     ],
     [
      -73.98565,
      40.71793
     ],
     [
      -73.9855,
      40.71776
     ],
     [
      -73.99375,
      40.72032
     ],
     [
      -73.99399,
      40.7203
     ],
     [
      -73.99538,
      40.71738
     ],
     [
      -73.99758,
      40.71407
     ],
     [
      -73.99891,
      40.71341
     ],
     [
      -74.00083,
      40.71308
     ]
    ]
   }
  },
  {
   "type": "Feature",
   "properties": {
    "zone_id": "Z4",
    "route_id": "T5",
    "entry_index": 3,
    "length_m": 1835
   },
   "geometry": {
    "type": "LineString",
    "coordinates": [
     [
      -73.98342,
      40.71853
     ],
     [
      -73.984,
      40.71743
     ],
     [
      -73.98565,
      40.71793
     ],
     [
      -73.9855,
      40.71776
     ],
     [
      -73.99375,
      40.72032
     ],
     [
      -73.99399,
      40.7203
     ],
     [
      -73.9974,
      40.72146
     ],
     [
      -73.99767,
      40.72076
     ],
     [
      -73.99995,
      40.71802
     ]
    ]
   }
  },
  {
   "type": "Feature",
   "properties": {
    "zone_id": "Z4",
    "route_id": "T6",
    "entry_index": 7,
    "length_m": 541
   },
   "geometry": {
    "type": "LineString",
    "coordinates": [
     [
      -73.98342,
      40.71853
     ],
     [
      -73.984,
      40.71743
     ],
     [
      -73.98565,
      40.71793
     ],
     [
      -73.9855,
      40.71776
     ],
     [
      -73.98806,
      40.7186
     ]
    ]
   }
  },
  {
   "type": "Feature",
   "properties": {
    "zone_id": "Z4",
    "route_id": "T7",
    "entry_index": 3,
    "length_m": 1835
   },
   "geometry": {
    "type": "LineString",
    "coordinates": [
     [
      -73.98342,
      40.71853
     ],
     [
      -73.984,
      40.71743
     ],
     [
      -73.98565,
      40.71793
     ],
     [
      -73.9855,
      40.71776
     ],
     [
      -73.99375,
      40.72032
     ],
     [
      -73.99399,
      40.7203
     ],
     [
      -73.9974,
      40.72146
     ],
     [
      -73.99767,
      40.72076
     ],
     [
      -73.99995,
      40.71802
     ]
    ]
   }
  },
  {
   "type": "Feature",
   "properties": {
    "zone_id": "Z5",
    "route_id": "R1",
    "entry_index": 0,
    "length_m": 1598
   },
   "geometry": {
    "type": "LineString",
    "coordinates": [
     [
      -74.00794,
      40.72141
     ],
     [
      -74.00795,
      40.72105
     ],
     [
      -74.00756,
      40.72072
     ],
     [
      -74.00697,
      40.72049
     ],
     [
      -74.00558,
      40.72034
     ],
     [
      -74.00462,
      40.72137
     ],
     [
      -73.99995,
      40.71802
     ],
     [
      -74.00206,
      40.71524
     ],
     [
      -74.0026,
      40.71429
     ],
     [
      -74.00097,
      40.71333
     ]
    ]
   }
  },
  {
   "type": "Feature",
   "properties": {
    "zone_id": "Z5",
    "route_id": "R2",
    "entry_index": 0,
    "length_m": 1598
   },
   "geometry": {
    "type": "LineString",
    "coordinates": [
     [
      -74.00794,
      40.72141
     ],
     [
      -74.00795,
      40.72105
     ],
     [
      -74.00756,
      40.72072
     ],
     [
      -74.00697,
      40.72049
     ],
     [
      -74.00558,
      40.72034
     ],
     [
      -74.00462,
      40.72137
     ],
     [
      -73.99995,
      40.71802
     ],
     [
      -74.00206,
      40.71524
     ],
     [
      -74.0026,
      40.71429
     ],
     [
      -74.00097,
      40.71333
     ]
    ]
   }
  },
  {
   "type": "Feature",
   "properties": {
    "zone_id": "Z5",
    "route_id": "R3",
    "entry_index": 0,
    "length_m": 1598
   },
   "geometry": {
    "type": "LineString",
    "coordinates": [
     [
      -74.00794,
      40.72141
     ],
     [
      -74.00795,
      40.72105
     ],
     [
      -74.00756,
      40.72072
     ],
     [
      -74.00697,
      40.72049
     ],
     [
      -74.00558,
      40.72034
     ],
     [
      -74.00462,
      40.72137
     ],
     [
      -73.99995,
      40.71802
     ],
     [
      -74.00206,
      40.71524
     ],
     [
      -74.0026,
      40.71429
     ],
     [
      -74.00097,
      40.71333
     ]
    ]
   }
  },
  {
   "type": "Feature",
   "properties": {
    "zone_id": "Z5",
    "route_id": "R4",
    "entry_index": 4,
    "length_m": 439
   },
   "geometry": {
    "type": "LineString",
    "coordinates": [
     [
      -74.00794,
      40.72141
     ],
     [
      -74.00766,
      40.72159
     ],
     [
      -74.00677,
      40.72172
     ],
     [
      -74.00766,
      40.72172
     ],
     [
      -74.0082,
      40.72198
     ],
     [
      -74.00796,
      40.72338
     ],
     [
      -74.00805,
      40.72372
     ]
    ]
   }
  },
  {
   "type": "Feature",
   "properties": {
    "zone_id": "Z5",
    "route_id": "R5",
    "entry_index": 0,
    "length_m": 1598
   },
   "geometry": {
    "type": "LineString",
    "coordinates": [
     [
      -74.00794,
      40.72141
     ],
     [
      -74.00795,
      40.72105
     ],
     [
      -74.00756,
      40.72072
     ],
     [
      -74.00697,
      40.72049
     ],
     [
      -74.00558,
      40.72034
     ],
     [
      -74.00462,
      40.72137
     ],
     [
      -73.99995,
      40.71802
     ],
     [
      -74.00206,
      40.71524
     ],
     [
      -74.0026,
      40.71429
     ],
     [
      -74.00097,
      40.71333
     ]
    ]
   }
  },
  {
   "type": "Feature",
   "properties": {
    "zone_id": "Z5",
    "route_id": "T1",
    "entry_index": 6,
    "length_m": 1516
   },
   "geometry": {
    "type": "LineString",
    "coordinates": [
     [
      -74.00794,
      40.72141
     ],
     [
      -74.00799,
      40.72082
     ],
     [
      -74.00847,
      40.72061
     ],
     [
      -74.00919,
      40.71619
     ],
     [
      -74.00753,
      40.71543
     ],
     [
      -74.00963,
      40.71271
     ],
     [
      -74.00823,
      40.71206
     ],
     [
      -74.00767,
      40.71167
     ],
     [
      -74.00554,
      40.71216
     ]
    ]
   }
  },
  {
   "type": "Feature",
   "properties": {
    "zone_id": "Z5",
    "route_id": "T2",
    "entry_index": 8,
    "length_m": 996
   },
   "geometry": {
    "type": "LineString",
    "coordinates": [
     [
      -74.00794,
      40.72141
     ],
     [
      -74.00799,
      40.72082
     ],
     [
      -74.00847,
      40.72061
     ],
     [
      -74.00905,
      40.71734
     ],
     [
      -74.00919,
      40.71619
     ],
     [
      -74.00884,
      40.71603
     ],
     [
      -74.01101,
      40.71334
     ]
    ]
   }
  },
  {
   "type": "Feature",
   "properties": {
    "zone_id": "Z5",
    "route_id": "T3",
    "entry_index": 0,
    "length_m": 1598
   },
   "geometry": {
    "type": "LineString",
    "coordinates": [
     [
      -74.00794,
      40.72141
     ],
     [
      -74.00795,
      40.72105
     ],
     [
      -74.00756,
      40.72072
     ],
     [
      -74.00697,
      40.72049
     ],
     [
      -74.00558,
      40.72034
     ],
     [
      -74.00462,
      40.72137
     ],
     [
      -73.99995,
      40.71802
     ],
     [
      -74.00206,
      40.71524
     ],
     [
      -74.0026,
      40.71429
     ],
     [
      -74.00097,
      40.71333
     ]
    ]
   }
  },
  {
   "type": "Feature",
   "properties": {
    "zone_id": "Z5",
    "route_id": "T4",
    "entry_index": 0,
    "length_m": 1598
   },
   "geometry": {
    "type": "LineString",
    "coordinates": [
     [
      -74.00794,
      40.72141
     ],
     [
      -74.00795,
      40.72105
     ],
     [
      -74.00756,
      40.72072
     ],
     [
      -74.00697,
      40.72049
     ],
     [
      -74.00558,
      40.72034
     ],
     [
      -74.00462,
      40.72137
     ],
     [
      -73.99995,
      40.71802
     ],
     [
      -74.00206,
      40.71524
     ],
     [
      -74.0026,
      40.71429
     ],
     [
      -74.00097,
      40.71333
     ]
    ]
   }
  },
  {
   "type": "Feature",
   "properties": {
    "zone_id": "Z5",
    "route_id": "T5",
    "entry_index": 5,
    "length_m": 740
   },
   "geometry": {
    "type": "LineString",
    "coordinates": [
     [
      -74.00794,
      40.72141
     ],
     [
      -74.00795,
      40.72105
     ],
     [
      -74.00756,
      40.72072
     ],
     [
      -74.00697,
      40.72049
     ],
     [
      -74.00558,
      40.72034
     ],
     [
      -74.00462,
      40.72137
     ],
     [
      -74.00188,
      40.7194
     ],
     [
      -74.00181,
      40.71949
     ]
    ]
   }
  },
  {
   "type": "Feature",
   "properties": {
    "zone_id": "Z5",
    "route_id": "T6",
    "entry_index": 0,
    "length_m": 1598
   },
   "geometry": {
    "type": "LineString",
    "coordinates": [
     [
      -74.00794,
      40.72141
     ],
     [
      -74.00795,
      40.72105
     ],
     [
      -74.00756,
      40.72072
     ],
     [
      -74.00697,
      40.72049
     ],
     [
      -74.00558,
      40.72034
     ],
     [
      -74.00462,
      40.72137
     ],
     [
      -73.99995,
      40.71802
     ],
     [
      -74.00206,
      40.71524
     ],
     [
      -74.0026,
      40.71429
     ],
     [
      -74.00097,
      40.71333
     ]
    ]
   }
  },
  {
   "type": "Feature",
   "properties": {
    "zone_id": "Z5",
    "route_id": "T7",
    "entry_index": 4,
    "length_m": 358
   },
   "geometry": {
    "type": "LineString",
    "coordinates": [
     [
      -74.00794,
      40.72141
     ],
     [
      -74.00787,
      40.72095
     ],
     [
      -74.00733,
      40.72083
     ],
     [
      -74.00701,
      40.72102
     ],
     [
      -74.0068,
      40.72151
     ],
     [
      -74.00651,
      40.72178
     ],
     [
      -74.00531,
      40.72171
     ],
     [
      -74.00535,
      40.72188
     ]
    ]
   }
  },
  {
   "type": "Feature",
   "properties": {
    "from_route": "T1",
    "route_id": "R1",
    "entry_index": 4,
    "length_m": 924
   },
   "geometry": {
    "type": "LineString",
    "coordinates": [
     [
      -74.00952,
      40.71039
     ],
     [
      -74.00867,
      40.71139
     ],
     [
      -74.0084,
      40.71132
     ],
     [
      -74.00535,
      40.71202
     ],
     [
      -74.00297,
      40.71052
     ],
     [
      -74.00166,
      40.70949
     ],
     [
      -74.00121,
      40.71006
     ]
    ]
   }
  },
  {
   "type": "Feature",
   "properties": {
    "from_route": "T1",
    "route_id": "R2",
    "entry_index": 1,
    "length_m": 877
   },
   "geometry": {
    "type": "LineString",
    "coordinates": [
     [
      -74.00952,
      40.71039
     ],
     [
      -74.00867,
      40.71139
     ],
     [
      -74.0084,
      40.71132
     ],
     [
      -74.00605,
      40.71192
     ],
     [
      -74.00611,
      40.71203
     ],
     [
      -74.00554,
      40.71216
     ],
     [
      -74.00509,
      40.71214
     ],
     [
      -74.00453,
      40.71188
     ],
     [
      -74.00415,
      40.71184
     ],
     [
      -74.0037,
      40.71195
     ],
     [
      -74.0025,
      40.71269
     ],
     [
      -74.00083,
      40.71308
     ]
    ]
   }
  },
  {
   "type": "Feature",
   "properties": {
    "from_route": "T1",
    "route_id": "R3",
    "entry_index": 1,
    "length_m": 877
   },
   "geometry": {
    "type": "LineString",
    "coordinates": [
     [
      -74.00952,
      40.71039
     ],
     [
      -74.00867,
      40.71139
     ],
     [
      -74.0084,
      40.71132
     ],
     [
      -74.00605,
      40.71192
     ],
     [
      -74.00611,
      40.71203
     ],
     [
      -74.00554,
      40.71216
     ],
     [
      -74.00509,
      40.71214
     ],
     [
      -74.00453,
      40.71188
     ],
     [
      -74.00415,
      40.71184
     ],
     [
      -74.0037,
      40.71195
     ],
     [
      -74.0025,
      40.71269
     ],
     [
      -74.00083,
      40.71308
     ]
    ]
   }
  },
  {
   "type": "Feature",
   "properties": {
    "from_route": "T1",
    "route_id": "R4",
    "entry_index": 1,
    "length_m": 786
   },
   "geometry": {
    "type": "LineString",
    "coordinates": [
     [
      -74.00952,
      40.71039
     ],
     [
      -74.00867,
      40.71139
     ],
     [
      -74.0084,
      40.71132
     ],
     [
      -74.00605,
      40.71192
     ],
     [
      -74.00611,
      40.71203
     ],
     [
      -74.00486,
      40.71246
     ],
     [
      -74.00422,
      40.71309
     ],
     [
      -74.00399,
      40.71312
     ],
     [
      -74.00352,
      40.71364
     ],
     [
      -74.0026,
      40.71429
     ]
    ]
   }
  },
  {
   "type": "Feature",
   "properties": {
    "from_route": "T1",
    "route_id": "R5",
    "entry_index": 1,
    "length_m": 877
   },
   "geometry": {
    "type": "LineString",
    "coordinates": [
     [
      -74.00952,
      40.71039
     ],
     [
      -74.00867,
      40.71139
     ],
     [
      -74.0084,
      40.71132
     ],
     [
      -74.00605,
      40.71192
     ],
     [
      -74.00611,
      40.71203
     ],
     [
      -74.00554,
      40.71216
     ],
     [
      -74.00509,
      40.71214
     ],
     [
      -74.00453,
      40.71188
     ],
     [
      -74.00415,
      40.71184
     ],
     [
      -74.0037,
      40.71195
     ],
     [
      -74.0025,
      40.71269
     ],
     [
      -74.00083,
      40.71308
     ]
    ]
   }
  },
  {
   "type": "Feature",
   "properties": {
    "from_route": "T1",
    "route_id": "T2",
    "entry_index": 6,
    "length_m": 269
   },
   "geometry": {
    "type": "LineString",
    "coordinates": [
     [
      -74.00952,
      40.71039
     ],
     [
      -74.00813,
      40.71199
     ],
     [
      -74.00767,
      40.71167
     ]
    ]
   }
  },
  {
   "type": "Feature",
   "properties": {
    "from_route": "T1",
    "route_id": "T3",
    "entry_index": 4,
    "length_m": 850
   },
   "geometry": {
    "type": "LineString",
    "coordinates": [
     [
      -74.00952,
      40.71039
     ],
     [
      -74.00867,
      40.71139
     ],
     [
      -74.0084,
      40.71132
     ],
     [
      -74.00535,
      40.71202
     ],
     [
      -74.00297,
      40.71052
     ],
     [
      -74.00166,
      40.70949
     ]
    ]
   }
  },
  {
   "type": "Feature",
   "properties": {
    "from_route": "T1",
    "route_id": "T4",
    "entry_index": 4,
    "length_m": 850
   },
   "geometry": {
    "type": "LineString",
    "coordinates": [
     [
      -74.00952,
      40.71039
     ],
     [
      -74.00867,
      40.71139
     ],
     [
      -74.0084,
      40.71132
     ],
     [
      -74.00535,
      40.71202
     ],
     [
      -74.00297,
      40.71052
     ],
     [
      -74.00166,
      40.70949
     ]
    ]
   }
  },
  {
   "type": "Feature",
   "properties": {
    "from_route": "T1",
    "route_id": "T5",
    "entry_index": 1,
    "length_m": 786
   },
   "geometry": {
    "type": "LineString",
    "coordinates": [
     [
      -74.00952,
      40.71039
     ],
     [
      -74.00867,
      40.71139
     ],
     [
      -74.0084,
      40.71132
     ],
     [
      -74.00605,
      40.71192
     ],
     [
      -74.00611,
      40.71203
     ],
     [
      -74.00486,
      40.71246
     ],
     [
      -74.00422,
      40.71309
     ],
     [
      -74.00399,
      40.71312
     ],
     [
      -74.00352,
      40.71364
     ],
     [
      -74.0026,
      40.71429
     ]
    ]
   }
  },
  {
   "type": "Feature",
   "properties": {
    "from_route": "T1",
    "route_id": "T6",
    "entry_index": 1,
    "length_m": 877
   },
   "geometry": {
    "type": "LineString",
    "coordinates": [
     [
      -74.00952,
      40.71039
     ],
     [
      -74.00867,
      40.71139
     ],
     [
      -74.0084,
      40.71132
     ],
     [
      -74.00605,
      40.71192
     ],
     [
      -74.00611,
      40.71203
     ],
     [
      -74.00554,
      40.71216
     ],
     [
      -74.00509,
      40.71214
     ],
     [
      -74.00453,
      40.71188
     ],
     [
      -74.00415,
      40.71184
     ],
     [
      -74.0037,
      40.71195
     ],
     [
      -74.0025,
      40.71269
     ],
     [
      -74.00083,
      40.71308
     ]
    ]
   }
  },
  {
   "type": "Feature",
   "properties": {
    "from_route": "T1",
    "route_id": "T7",
    "entry_index": 1,
    "length_m": 786
   },
   "geometry": {
    "type": "LineString",
    "coordinates": [
     [
      -74.00952,
      40.71039
     ],
     [
      -74.00867,
      40.71139
     ],
     [
      -74.0084,
      40.71132
     ],
     [
      -74.00605,
      40.71192
     ],
     [
      -74.00611,
      40.71203
     ],
     [
      -74.00486,
      40.71246
     ],
     [
      -74.00422,
      40.71309
     ],
     [
      -74.00399,
      40.71312
     ],
     [
      -74.00352,
      40.71364
     ],
     [
      -74.0026,
      40.71429
     ]
    ]
   }
  },
  {
   "type": "Feature",
   "properties": {
    "from_route": "T2",
    "route_id": "R1",
    "entry_index": 0,
    "length_m": 1109
   },
   "geometry": {
    "type": "LineString",
    "coordinates": [
     [
      -74.01178,
      40.71262
     ],
     [
      -74.01101,
      40.71334
     ],
     [
      -74.00823,
      40.71206
     ],
     [
      -74.00767,
      40.71167
     ],
     [
      -74.0054,
      40.71217
     ],
     [
      -74.00424,
      40.71183
     ],
     [
      -74.0037,
      40.71195
     ],
     [
      -74.0025,
      40.71269
     ],
     [
      -74.00083,
      40.71308
     ],
     [
      -74.00097,
      40.71333
     ]
    ]
   }
  },
  {
   "type": "Feature",
   "properties": {
    "from_route": "T2",
    "route_id": "R2",
    "entry_index": 0,
    "length_m": 1109
   },
   "geometry": {
    "type": "LineString",
    "coordinates": [
     [
      -74.01178,
      40.71262
     ],
     [
      -74.01101,
      40.71334
     ],
     [
      -74.00823,
      40.71206
     ],
     [
      -74.00767,
      40.71167
     ],
     [
      -74.0054,
      40.71217
     ],
     [
      -74.00424,
      40.71183
     ],
     [
      -74.0037,
      40.71195
     ],
     [
      -74.0025,
      40.71269
     ],
     [
      -74.00083,
      40.71308
     ],
     [
      -74.00097,
      40.71333
     ]
    ]
   }
  },
  {
   "type": "Feature",
   "properties": {
    "from_route": "T2",
    "route_id": "R3",
    "entry_index": 0,
    "length_m": 1109
   },
   "geometry": {
    "type": "LineString",
    "coordinates": [
     [
      -74.01178,
      40.71262
     ],
     [
      -74.01101,
      40.71334
     ],
     [
      -74.00823,
      40.71206
     ],
     [
      -74.00767,
      40.71167
     ],
     [
      -74.0054,
      40.71217
     ],
     [
      -74.00424,
      40.71183
     ],
     [
      -74.0037,
      40.71195
     ],
     [
      -74.0025,
      40.71269
     ],
     [
      -74.00083,
      40.71308
     ],
     [
      -74.00097,
      40.71333
     ]
    ]
   }
  },
  {
   "type": "Feature",
   "properties": {
    "from_route": "T2",
    "route_id": "R4",
    "entry_index": 1,
    "length_m": 987
   },
   "geometry": {
    "type": "LineString",
    "coordinates": [
     [
      -74.01178,
      40.71262
     ],
     [
      -74.01101,
      40.71334
     ],
     [
      -74.00823,
      40.71206
     ],
     [
      -74.00784,
      40.71173
     ],
     [
      -74.00749,
      40.71168
     ],
     [
      -74.00497,
      40.7124
     ],
     [
      -74.0026,
      40.71429
     ]
    ]
   }
  },
  {
   "type": "Feature",
   "properties": {
    "from_route": "T2",
    "route_id": "R5",
    "entry_index": 0,
    "length_m": 1109
   },
   "geometry": {
    "type": "LineString",
    "coordinates": [
     [
      -74.01178,
      40.71262
     ],
     [
      -74.01101,
      40.71334
     ],
     [
      -74.00823,
      40.71206
     ],
     [
      -74.00767,
      40.71167
     ],
     [
      -74.0054,
      40.71217
     ],
     [
      -74.00424,
      40.71183
     ],
     [
      -74.0037,
      40.71195
     ],
     [
      -74.0025,
      40.71269
     ],
     [
      -74.00083,
      40.71308
     ],
     [
      -74.00097,
      40.71333
     ]
    ]
   }
  },
  {
   "type": "Feature",
   "properties": {
    "from_route": "T2",
    "route_id": "T1",
    "entry_index": 10,
    "length_m": 470
   },
   "geometry": {
    "type": "LineString",
    "coordinates": [
     [
      -74.01178,
      40.71262
     ],
     [
      -74.01101,
      40.71334
     ],
     [
      -74.00963,
      40.71271
     ],
     [
      -74.01012,
      40.71206
     ],
     [
      -74.00867,
      40.71139
     ]
    ]
   }
  },
  {
   "type": "Feature",
   "properties": {
    "from_route": "T2",
    "route_id": "T3",
    "entry_index": 0,
    "length_m": 1109
   },
   "geometry": {
    "type": "LineString",
    "coordinates": [
     [
      -74.01178,
      40.71262
     ],
     [
      -74.01101,
      40.71334
     ],
     [
      -74.00823,
      40.71206
     ],
     [
      -74.00767,
      40.71167
     ],
     [
      -74.0054,
      40.71217
     ],
     [
      -74.00424,
      40.71183
     ],
     [
      -74.0037,
      40.71195
     ],
     [
      -74.0025,
      40.71269
     ],
     [
      -74.00083,
      40.71308
     ],
     [
      -74.00097,
      40.71333
     ]
    ]
   }
  },
  {
   "type": "Feature",
   "properties": {
    "from_route": "T2",
    "route_id": "T4",
    "entry_index": 0,
    "length_m": 1109
   },
   "geometry": {
    "type": "LineString",
    "coordinates": [
     [
      -74.01178,
      40.71262
     ],
     [
      -74.01101,
      40.71334
     ],
     [
      -74.00823,
      40.71206
     ],
     [
      -74.00767,
      40.71167
     ],
     [
      -74.0054,
      40.71217
     ],
     [
      -74.00424,
      40.71183
     ],
     [
      -74.0037,
      40.71195
     ],
     [
      -74.0025,
      40.71269
     ],
     [
      -74.00083,
      40.71308
     ],
     [
      -74.00097,
      40.71333
     ]
    ]
   }
  },
  {
   "type": "Feature",
   "properties": {
    "from_route": "T2",
    "route_id": "T5",
    "entry_index": 1,
    "length_m": 987
   },
   "geometry": {
    "type": "LineString",
    "coordinates": [
     [
      -74.01178,
      40.71262
     ],
     [
      -74.01101,
      40.71334
     ],
     [
      -74.00823,
      40.71206
     ],
     [
      -74.00784,
      40.71173
     ],
     [
      -74.00749,
      40.71168
     ],
     [
      -74.00497,
      40.7124
     ],
     [
      -74.0026,
      40.71429
     ]
    ]
   }
  },
  {
   "type": "Feature",
   "properties": {
    "from_route": "T2",
    "route_id": "T6",
    "entry_index": 0,
    "length_m": 1109
   },
   "geometry": {
    "type": "LineString",
    "coordinates": [
     [
      -74.01178,
      40.71262
     ],
     [
      -74.01101,
      40.71334
     ],
     [
      -74.00823,
      40.71206
     ],
     [
      -74.00767,
      40.71167
     ],
     [
      -74.0054,
      40.71217
     ],
     [
      -74.00424,
      40.71183
     ],
     [
      -74.0037,
      40.71195
     ],
     [
      -74.0025,
      40.71269
     ],
     [
      -74.00083,
      40.71308
     ],
     [
      -74.00097,
      40.71333
     ]
    ]
   }
  },
  {
   "type": "Feature",
   "properties": {
    "from_route": "T2",
    "route_id": "T7",
    "entry_index": 1,
    "length_m": 987
   },
   "geometry": {
    "type": "LineString",
    "coordinates": [
     [
      -74.01178,
      40.71262
     ],
     [
      -74.01101,
      40.71334
     ],
     [
      -74.00823,
      40.71206
     ],
     [
      -74.00784,
      40.71173
     ],
     [
      -74.00749,
      40.71168
     ],
     [
      -74.00497,
      40.7124
     ],
     [
      -74.0026,
      40.71429
     ]
    ]
   }
  },
  {
   "type": "Feature",
   "properties": {
    "from_route": "T3",
    "route_id": "R1",
    "entry_index": 7,
    "length_m": 1804
   },
   "geometry": {
    "type": "LineString",
    "coordinates": [
     [
      -74.01295,
      40.70124
     ],
     [
      -74.00988,
      40.70191
     ],
     [
      -74.00935,
      40.70212
     ],
     [
      -74.00296,
      40.70614
     ],
     [
      -74.00024,
      40.70751
     ],
     [
      -74.00001,
      40.70788
     ],
     [
      -74.00011,
      40.70824
     ],
     [
      -74.00166,
      40.70949
     ],
     [
      -74.00155,
      40.7096
     ],
     [
      -74.00117,
      40.70967
     ],
     [
      -74.0009,
      40.70959
     ],
     [
      -74.00035,
      40.7091
     ],
     [
      -74.00007,
      40.70838
     ]
    ]
   }
  },
  {
   "type": "Feature",
   "properties": {
    "from_route": "T3",
    "route_id": "R2",
    "entry_index": 1,
    "length_m": 2012
   },
   "geometry": {
    "type": "LineString",
    "coordinates": [
     [
      -74.01295,
      40.70124
     ],
     [
      -74.00988,
      40.70191
     ],
     [
      -74.00935,
      40.70212
     ],
     [
      -74.00296,
      40.70614
     ],
     [
      -74.00019,
      40.70755
     ],
     [
      -74.00001,
      40.70788
     ],
     [
      -74.00011,
      40.70824
     ],
     [
      -74.00166,
      40.70949
     ],
     [
      -74.00049,
      40.711
     ],
     [
      -74.00088,
      40.7116
     ],
     [
      -74.00083,
      40.71308
     ]
    ]
   }
  },
  {
   "type": "Feature",
   "properties": {
    "from_route": "T3",
    "route_id": "R3",
    "entry_index": 1,
    "length_m": 2012
   },
   "geometry": {
    "type": "LineString",
    "coordinates": [
     [
      -74.01295,
      40.70124
     ],
     [
      -74.00988,
      40.70191
     ],
     [
      -74.00935,
      40.70212
     ],
     [
      -74.00296,
      40.70614
     ],
     [
      -74.00019,
      40.70755
     ],
     [
      -74.00001,
      40.70788
     ],
     [
      -74.00011,
      40.70824
     ],
     [
      -74.00166,
      40.70949
     ],
     [
      -74.00049,
      40.711
     ],
     [
      -74.00088,
      40.7116
     ],
     [
      -74.00083,
      40.71308
     ]
    ]
   }
  },
  {
   "type": "Feature",
   "properties": {
    "from_route": "T3",
    "route_id": "R4",
    "entry_index": 0,
    "length_m": 2044
   },
   "geometry": {
    "type": "LineString",
    "coordinates": [
     [
      -74.01295,
      40.70124
     ],
     [
      -74.00988,
      40.70191
     ],
     [
      -74.00935,
      40.70212
     ],
     [
      -74.00296,
      40.70614
     ],
     [
      -74.00015,
      40.70759
     ],
     [
      -74.00001,
      40.70788
     ],
     [
      -74.00011,
      40.70824
     ],
     [
      -74.00166,
      40.70949
     ],
     [
      -74.00049,
      40.711
     ],
     [
      -74.00088,
      40.7116
     ],
     [
      -74.00083,
      40.71308
     ],
     [
      -74.00097,
      40.71333
     ]
    ]
   }
  },
  {
   "type": "Feature",
   "properties": {
    "from_route": "T3",
    "route_id": "R5",
    "entry_index": 1,
    "length_m": 2012
   },
   "geometry": {
    "type": "LineString",
    "coordinates": [
     [
      -74.01295,
      40.70124
     ],
     [
      -74.00988,
      40.70191
     ],
     [
      -74.00935,
      40.70212
     ],
     [
      -74.00296,
      40.70614
     ],
     [
      -74.00019,
      40.70755
     ],
     [
      -74.00001,
      40.70788
     ],
     [
      -74.00011,
      40.70824
     ],
     [
      -74.00166,
      40.70949
     ],
     [
      -74.00049,
      40.711
     ],
     [
      -74.00088,
      40.7116
     ],
     [
      -74.00083,
      40.71308
     ]
    ]
   }
  },
  {
   "type": "Feature",
   "properties": {
    "from_route": "T3",
    "route_id": "T1",
    "entry_index": 11,
    "length_m": 1783
   },
   "geometry": {
    "type": "LineString",
    "coordinates": [
     [
      -74.01295,
      40.70124
     ],
     [
      -74.00988,
      40.70191
     ],
     [
      -74.01215,
      40.70132
     ],
     [
      -74.01225,
      40.7015
     ],
     [
      -74.01197,
      40.70161
     ],
     [
      -74.01255,
      40.70153
     ],
     [
      -74.01284,
      40.70244
     ],
     [
      -74.01387,
      40.70245
     ],
     [
      -74.01433,
      40.70291
     ],
     [
      -74.01445,
      40.70333
     ],
     [
      -74.01426,
      40.70454
     ],
     [
      -74.01393,
      40.70511
     ],
     [
      -74.00952,
      40.71039
     ]
    ]
   }
  },
  {
   "type": "Feature",
   "properties": {
    "from_route": "T3",
    "route_id": "T2",
    "entry_index": 6,
    "length_m": 2296
   },
   "geometry": {
    "type": "LineString",
    "coordinates": [
     [
      -74.01295,
      40.70124
     ],
     [
      -74.01365,
      40.70115
     ],
     [
      -74.01447,
      40.70123
     ],
     [
      -74.01541,
      40.70164
     ],
     [
      -74.01604,
      40.70234
     ],
     [
      -74.01679,
      40.70453
     ],
     [
      -74.01613,
      40.70689
     ],
     [
      -74.01601,
      40.70716
     ],
     [
      -74.01569,
      40.70731
     ],
     [
      -74.01502,
      40.70896
     ],
     [
      -74.01396,
      40.713
     ],
     [
      -74.01342,
      40.71443
     ],
     [
      -74.00823,
      40.71206
     ],
     [
      -74.00767,
      40.71167
     ]
    ]
   }
  },
  {
   "type": "Feature",
   "properties": {
    "from_route": "T3",
    "route_id": "T4",
    "entry_index": 8,
    "length_m": 604
   },
   "geometry": {
    "type": "LineString",
    "coordinates": [
     [
      -74.01295,
      40.70124
     ],
     [
      -74.00963,
      40.70199
     ],
     [
      -74.00673,
      40.70373
     ]
    ]
   }
  },
  {
   "type": "Feature",
   "properties": {
    "from_route": "T3",
    "route_id": "T5",
    "entry_index": 0,
    "length_m": 2044
   },
   "geometry": {
    "type": "LineString",
    "coordinates": [
     [
      -74.01295,
      40.70124
     ],
     [
      -74.00988,
      40.70191
     ],
     [
      -74.00935,
      40.70212
     ],
     [
      -74.00296,
      40.70614
     ],
     [
      -74.00015,
      40.70759
     ],
     [
      -74.00001,
      40.70788
     ],
     [
      -74.00011,
      40.70824
     ],
     [
      -74.00166,
      40.70949
     ],
     [
      -74.00049,
      40.711
     ],
     [
      -74.00088,
      40.7116
     ],
     [
      -74.00083,
      40.71308
     ],
     [
      -74.00097,
      40.71333
     ]
    ]
   }
  },
  {
   "type": "Feature",
   "properties": {
    "from_route": "T3",
    "route_id": "T6",
    "entry_index": 1,
    "length_m": 2012
   },
   "geometry": {
    "type": "LineString",
    "coordinates": [
     [
      -74.01295,
      40.70124
     ],
     [
      -74.00988,
      40.70191
     ],
     [
      -74.00935,
      40.70212
     ],
     [
      -74.00296,
      40.70614
     ],
     [
      -74.00019,
      40.70755
     ],
     [
      -74.00001,
      40.70788
     ],
     [
      -74.00011,
      40.70824
     ],
     [
      -74.00166,
      40.70949
     ],
     [
      -74.00049,
      40.711
     ],
     [
      -74.00088,
      40.7116
     ],
     [
      -74.00083,
      40.71308
     ]
    ]
   }
  },
  {
   "type": "Feature",
   "properties": {
    "from_route": "T3",
    "route_id": "T7",
    "entry_index": 0,
    "length_m": 2044
   },
   "geometry": {
    "type": "LineString",
    "coordinates": [
     [
      -74.01295,
      40.70124
     ],
     [
      -74.00988,
      40.70191
     ],
     [
      -74.00935,
      40.70212
     ],
     [
      -74.00296,
      40.70614
     ],
     [
      -74.00015,
      40.70759
     ],
     [
      -74.00001,
      40.70788
     ],
     [
      -74.00011,
      40.70824
     ],
     [
      -74.00166,
      40.70949
     ],
     [
      -74.00049,
      40.711
     ],
     [
      -74.00088,
      40.7116
     ],
     [
      -74.00083,
      40.71308
     ],
     [
      -74.00097,
      40.71333
     ]
    ]
   }
  },
  {
   "type": "Feature",
   "properties": {
    "from_route": "T4",
    "route_id": "R1",
    "entry_index": 7,
    "length_m": 1200
   },
   "geometry": {
    "type": "LineString",
    "coordinates": [
     [
      -74.00673,
      40.70373
     ],
     [
      -74.00296,
      40.70614
     ],
     [
      -74.00007,
      40.70768
     ],
     [
      -74.00011,
      40.70824
     ],
     [
      -74.00166,
      40.70949
     ],
     [
      -74.00155,
      40.7096
     ],
     [
      -74.00117,
      40.70967
     ],
     [
      -74.0009,
      40.70959
     ],
     [
      -74.00035,
      40.7091
     ],
     [
      -74.00007,
      40.70838
     ]
    ]
   }
  },
  {
   "type": "Feature",
   "properties": {
    "from_route": "T4",
    "route_id": "R2",
    "entry_index": 1,
    "length_m": 1408
   },
   "geometry": {
    "type": "LineString",
    "coordinates": [
     [
      -74.00673,
      40.70373
     ],
     [
      -74.00296,
      40.70614
     ],
     [
      -74.00007,
      40.70768
     ],
     [
      -74.00011,
      40.70824
     ],
     [
      -74.00166,
      40.70949
     ],
     [
      -74.00049,
      40.711
     ],
     [
      -74.00088,
      40.7116
     ],
     [
      -74.00083,
      40.71308
     ]
    ]
   }
  },
  {
   "type": "Feature",
   "properties": {
    "from_route": "T4",
    "route_id": "R3",
    "entry_index": 1,
    "length_m": 1408
   },
   "geometry": {
    "type": "LineString",
    "coordinates": [
     [
      -74.00673,
      40.70373
     ],
     [
      -74.00296,
      40.70614
     ],
     [
      -74.00007,
      40.70768
     ],
     [
      -74.00011,
      40.70824
     ],
     [
      -74.00166,
      40.70949
     ],
     [
      -74.00049,
      40.711
     ],
     [
      -74.00088,
      40.7116
     ],
     [
      -74.00083,
      40.71308
     ]
    ]
   }
  },
  {
   "type": "Feature",
   "properties": {
    "from_route": "T4",
    "route_id": "R4",
    "entry_index": 0,
    "length_m": 1439
   },
   "geometry": {
    "type": "LineString",
    "coordinates": [
     [
      -74.00673,
      40.70373
     ],
     [
      -74.00296,
      40.70614
     ],
     [
      -74.00007,
      40.70768
     ],
     [
      -74.00011,
      40.70824
     ],
     [
      -74.00166,
      40.70949
     ],
     [
      -74.00049,
      40.711
     ],
     [
      -74.00088,
      40.7116
     ],
     [
      -74.00083,
      40.71308
     ],
     [
      -74.00097,
      40.71333
     ]
    ]
   }
  },
  {
   "type": "Feature",
   "properties": {
    "from_route": "T4",
    "route_id": "R5",
    "entry_index": 1,
    "length_m": 1408
   },
   "geometry": {
    "type": "LineString",
    "coordinates": [
     [
      -74.00673,
      40.70373
     ],
     [
      -74.00296,
      40.70614
     ],
     [
      -74.00007,
      40.70768
     ],
     [
      -74.00011,
      40.70824
     ],
     [
      -74.00166,
      40.70949
     ],
     [
      -74.00049,
      40.711
     ],
     [
      -74.00088,
      40.7116
     ],
     [
      -74.00083,
      40.71308
     ]
    ]
   }
  },
  {
   "type": "Feature",
   "properties": {
    "from_route": "T4",
    "route_id": "T1",
    "entry_index": 11,
    "length_m": 1848
   },
   "geometry": {
    "type": "LineString",
    "coordinates": [
     [
      -74.00673,
      40.70373
     ],
     [
      -74.00963,
      40.70199
     ],
     [
      -74.01215,
      40.70132
     ],
     [
      -74.01225,
      40.7015
     ],
     [
      -74.01197,
      40.70161
     ],
     [
      -74.01255,
      40.70153
     ],
     [
      -74.01284,
      40.70244
     ],
     [
      -74.01378,
      40.70241
     ],
     [
      -74.01441,
      40.70307
     ],
     [
      -74.01426,
      40.70454
     ],
     [
      -74.01393,
      40.70511
     ],
     [
      -74.00952,
      40.71039
     ]
    ]
   }
  },
  {
   "type": "Feature",
   "properties": {
    "from_route": "T4",
    "route_id": "T2",
    "entry_index": 6,
    "length_m": 1600
   },
   "geometry": {
    "type": "LineString",
    "coordinates": [
     [
      -74.00673,
      40.70373
     ],
     [
      -74.00296,
      40.70614
     ],
     [
      -74.00024,
      40.70751
     ],
     [
      -74.00001,
      40.70799
     ],
     [
      -74.00034,
      40.70848
     ],
     [
      -74.00154,
      40.70943
     ],
     [
      -74.00523,
      40.712
     ],
     [
      -74.00767,
      40.71167
     ]
    ]
   }
  },
  {
   "type": "Feature",
   "properties": {
    "from_route": "T4",
    "route_id": "T3",
    "entry_index": 9,
    "length_m": 284
   },
   "geometry": {
    "type": "LineString",
    "coordinates": [
     [
      -74.00673,
      40.70373
     ],
     [
      -74.00935,
      40.70212
     ]
    ]
   }
  },
  {
   "type": "Feature",
   "properties": {
    "from_route": "T4",
    "route_id": "T5",
    "entry_index": 0,
    "length_m": 1439
   },
   "geometry": {
    "type": "LineString",
    "coordinates": [
     [
      -74.00673,
      40.70373
     ],
     [
      -74.00296,
      40.70614
     ],
     [
      -74.00007,
      40.70768
     ],
     [
      -74.00011,
      40.70824
     ],
     [
      -74.00166,
      40.70949
     ],
     [
      -74.00049,
      40.711
     ],
     [
      -74.00088,
      40.7116
     ],
     [
      -74.00083,
      40.71308
     ],
     [
      -74.00097,
      40.71333
     ]
    ]
   }
  },
  {
   "type": "Feature",
   "properties": {
    "from_route": "T4",
    "route_id": "T6",
    "entry_index": 1,
    "length_m": 1408
   },
   "geometry": {
    "type": "LineString",
    "coordinates": [
     [
      -74.00673,
      40.70373
     ],
     [
      -74.00296,
      40.70614
     ],
     [
      -74.00007,
      40.70768
     ],
     [
      -74.00011,
      40.70824
     ],
     [
      -74.00166,
      40.70949
     ],
     [
      -74.00049,
      40.711
     ],
     [
      -74.00088,
      40.7116
     ],
     [
      -74.00083,
      40.71308
     ]
    ]
   }
  },
  {
   "type": "Feature",
   "properties": {
    "from_route": "T4",
    "route_id": "T7",
    "entry_index": 0,
    "length_m": 1439
   },
   "geometry": {
    "type": "LineString",
    "coordinates": [
     [
      -74.00673,
      40.70373
     ],
     [
      -74.00296,
      40.70614
     ],
     [
      -74.00007,
      40.70768
     ],
     [
      -74.00011,
      40.70824
     ],
     [
      -74.00166,
      40.70949
     ],
     [
      -74.00049,
      40.711
     ],
     [
      -74.00088,
      40.7116
     ],
     [
      -74.00083,
      40.71308
     ],
     [
      -74.00097,
      40.71333
     ]
    ]
   }
  },
  {
   "type": "Feature",
   "properties": {
    "from_route": "T5",
    "route_id": "R1",
    "entry_index": 0,
    "length_m": 882
   },
   "geometry": {
    "type": "LineString",
    "coordinates": [
     [
      -74.00181,
      40.71949
     ],
     [
      -74.00181,
      40.71934
     ],
     [
      -73.99995,
      40.71802
     ],
     [
      -74.00206,
      40.71524
     ],
     [
      -74.0026,
      40.71429
     ],
     [
      -74.00097,
      40.71333
     ]
    ]
   }
  },
  {
   "type": "Feature",
   "properties": {
    "from_route": "T5",
    "route_id": "R2",
    "entry_index": 0,
    "length_m": 882
   },
   "geometry": {
    "type": "LineString",
    "coordinates": [
     [
      -74.00181,
      40.71949
     ],
     [
      -74.00181,
      40.71934
     ],
     [
      -73.99995,
      40.71802
     ],
     [
      -74.00206,
      40.71524
     ],
     [
      -74.0026,
      40.71429
     ],
     [
      -74.00097,
      40.71333
     ]
    ]
   }
  },
  {
   "type": "Feature",
   "properties": {
    "from_route": "T5",
    "route_id": "R3",
    "entry_index": 0,
    "length_m": 882
   },
   "geometry": {
    "type": "LineString",
    "coordinates": [
     [
      -74.00181,
      40.71949
     ],
     [
      -74.00181,
      40.71934
     ],
     [
      -73.99995,
      40.71802
     ],
     [
      -74.00206,
      40.71524
     ],
     [
      -74.0026,
      40.71429
     ],
     [
      -74.00097,
      40.71333
     ]
    ]
   }
  },
  {
   "type": "Feature",
   "properties": {
    "from_route": "T5",
    "route_id": "R4",
    "entry_index": 3,
    "length_m": 235
   },
   "geometry": {
    "type": "LineString",
    "coordinates": [
     [
      -74.00181,
      40.71949
     ],
     [
      -74.00181,
      40.71934
     ],
     [
      -73.99995,
      40.71802
     ]
    ]
   }
  },
  {
   "type": "Feature",
   "properties": {
    "from_route": "T5",
    "route_id": "R5",
    "entry_index": 5,
    "length_m": 748
   },
   "geometry": {
    "type": "LineString",
    "coordinates": [
     [
      -74.00181,
      40.71949
     ],
     [
      -74.00066,
      40.72085
     ],
     [
      -73.99809,
      40.71959
     ],
     [
      -73.99478,
      40.71854
     ]
    ]
   }
  },
  {
   "type": "Feature",
   "properties": {
    "from_route": "T5",
    "route_id": "T1",
    "entry_index": 0,
    "length_m": 882
   },
   "geometry": {
    "type": "LineString",
    "coordinates": [
     [
      -74.00181,
      40.71949
     ],
     [
      -74.00181,
      40.71934
     ],
     [
      -73.99995,
      40.71802
     ],
     [
      -74.00206,
      40.71524
     ],
     [
      -74.0026,
      40.71429
     ],
     [
      -74.00097,
      40.71333
     ]
    ]
   }
  },
  {
   "type": "Feature",
   "properties": {
    "from_route": "T5",
    "route_id": "T2",
    "entry_index": 0,
    "length_m": 882
   },
   "geometry": {
    "type": "LineString",
    "coordinates": [
     [
      -74.00181,
      40.71949
     ],
     [
      -74.00181,
      40.71934
     ],
     [
      -73.99995,
      40.71802
     ],
     [
      -74.00206,
      40.71524
     ],
     [
      -74.0026,
      40.71429
     ],
     [
      -74.00097,
      40.71333
     ]
    ]
   }
  },
  {
   "type": "Feature",
   "properties": {
    "from_route": "T5",
    "route_id": "T3",
    "entry_index": 0,
    "length_m": 882
   },
   "geometry": {
    "type": "LineString",
    "coordinates": [
     [
      -74.00181,
      40.71949
     ],
     [
      -74.00181,
      40.71934
     ],
     [
      -73.99995,
      40.71802
     ],
     [
      -74.00206,
      40.71524
     ],
     [
      -74.0026,
      40.71429
     ],
     [
      -74.00097,
      40.71333
     ]
    ]
   }
  },
  {
   "type": "Feature",
   "properties": {
    "from_route": "T5",
    "route_id": "T4",
    "entry_index": 0,
    "length_m": 882
   },
   "geometry": {
    "type": "LineString",
    "coordinates": [
     [
      -74.00181,
      40.71949
     ],
     [
      -74.00181,
      40.71934
     ],
     [
      -73.99995,
      40.71802
     ],
     [
      -74.00206,
      40.71524
     ],
     [
      -74.0026,
      40.71429
     ],
     [
      -74.00097,
      40.71333
     ]
    ]
   }
  },
  {
   "type": "Feature",
   "properties": {
    "from_route": "T5",
    "route_id": "T6",
    "entry_index": 4,
    "length_m": 759
   },
   "geometry": {
    "type": "LineString",
    "coordinates": [
     [
      -74.00181,
      40.71949
     ],
     [
      -74.00181,
      40.71934
     ],
     [
      -73.99888,
      40.71724
     ],
     [
      -73.99699,
      40.71655
     ],
     [
      -73.99606,
      40.71627
     ],
     [
      -73.99538,
      40.71738
     ]
    ]
   }
  },
  {
   "type": "Feature",
   "properties": {
    "from_route": "T5",
    "route_id": "T7",
    "entry_index": 3,
    "length_m": 235
   },
   "geometry": {
    "type": "LineString",
    "coordinates": [
     [
      -74.00181,
      40.71949
     ],
     [
      -74.00181,
      40.71934
     ],
     [
      -73.99995,
      40.71802
     ]
    ]
   }
  },
  {
   "type": "Feature",
   "properties": {
    "from_route": "T6",
    "route_id": "R1",
    "entry_index": 12,
    "length_m": 2214
   },
   "geometry": {
    "type": "LineString",
    "coordinates": [
     [
      -73.98806,
      40.7186
     ],
     [
      -73.98738,
      40.71839
     ],
     [
      -73.98838,
      40.71645
     ],
     [
      -73.98427,
      40.71518
     ],
     [
      -73.98494,
      40.71412
     ],
     [
      -73.9851,
      40.71352
     ],
     [
      -73.98466,
      40.71048
     ],
     [
      -73.98149,
      40.71075
     ],
     [
      -73.9846,
      40.71053
     ],
     [
      -73.99013,
      40.70988
     ]
    ]
   }
  },
  {
   "type": "Feature",
   "properties": {
    "from_route": "T6",
    "route_id": "R2",
    "entry_index": 6,
    "length_m": 853
   },
   "geometry": {
    "type": "LineString",
    "coordinates": [
     [
      -73.98806,
      40.7186
     ],
     [
      -73.99021,
      40.71925
     ],
     [
      -73.99238,
      40.71505
     ],
     [
      -73.99256,
      40.71439
     ],
     [
      -73.99281,
      40.71437
     ],
     [
      -73.99276,
      40.71385
     ]
    ]
   }
  },
  {
   "type": "Feature",
   "properties": {
    "from_route": "T6",
    "route_id": "R3",
    "entry_index": 9,
    "length_m": 466
   },
   "geometry": {
    "type": "LineString",
    "coordinates": [
     [
      -73.98806,
      40.7186
     ],
     [
      -73.98738,
      40.71839
     ],
     [
      -73.98746,
      40.71825
     ],
     [
      -73.98582,
      40.71762
     ],
     [
      -73.98566,
      40.71739
     ],
     [
      -73.98348,
      40.71672
     ]
    ]
   }
  },
  {
   "type": "Feature",
   "properties": {
    "from_route": "T6",
    "route_id": "R4",
    "entry_index": 3,
    "length_m": 1294
   },
   "geometry": {
    "type": "LineString",
    "coordinates": [
     [
      -73.98806,
      40.7186
     ],
     [
      -73.99375,
      40.72032
     ],
     [
      -73.99399,
      40.7203
     ],
     [
      -73.9974,
      40.72146
     ],
     [
      -73.99767,
      40.72076
     ],
     [
      -73.99995,
      40.71802
     ]
    ]
   }
  },
  {
   "type": "Feature",
   "properties": {
    "from_route": "T6",
    "route_id": "R5",
    "entry_index": 5,
    "length_m": 744
   },
   "geometry": {
    "type": "LineString",
    "coordinates": [
     [
      -73.98806,
      40.7186
     ],
     [
      -73.9938,
      40.72032
     ],
     [
      -73.99399,
      40.7203
     ],
     [
      -73.99478,
      40.71854
     ]
    ]
   }
  },
  {
   "type": "Feature",
   "properties": {
    "from_route": "T6",
    "route_id": "T1",
    "entry_index": 0,
    "length_m": 1630
   },
   "geometry": {
    "type": "LineString",
    "coordinates": [
     [
      -73.98806,
      40.7186
     ],
     [
      -73.99375,
      40.72032
     ],
     [
      -73.99399,
      40.7203
     ],
     [
      -73.99538,
      40.71738
     ],
     [
      -73.99764,
      40.71401
     ],
     [
      -73.99898,
      40.71339
     ],
     [
      -74.00083,
      40.71308
     ],
     [
      -74.00097,
      40.71333
     ]
    ]
   }
  },
  {
   "type": "Feature",
   "properties": {
    "from_route": "T6",
    "route_id": "T2",
    "entry_index": 0,
    "length_m": 1630
   },
   "geometry": {
    "type": "LineString",
    "coordinates": [
     [
      -73.98806,
      40.7186
     ],
     [
      -73.99375,
      40.72032
     ],
     [
      -73.99399,
      40.7203
     ],
     [
      -73.99538,
      40.71738
     ],
     [
      -73.99764,
      40.71401
     ],
     [
      -73.99898,
      40.71339
     ],
     [
      -74.00083,
      40.71308
     ],
     [
      -74.00097,
      40.71333
     ]
    ]
   }
  },
  {
   "type": "Feature",
   "properties": {
    "from_route": "T6",
    "route_id": "T3",
    "entry_index": 0,
    "length_m": 1630
   },
   "geometry": {
    "type": "LineString",
    "coordinates": [
     [
      -73.98806,
      40.7186
     ],
     [
      -73.99375,
      40.72032
     ],
     [
      -73.99399,
      40.7203
     ],
     [
      -73.99538,
      40.71738
     ],
     [
      -73.99764,
      40.71401
     ],
     [
      -73.99898,
      40.71339
     ],
     [
      -74.00083,
      40.71308
     ],
     [
      -74.00097,
      40.71333
     ]
    ]
   }
  },
  {
   "type": "Feature",
   "properties": {
    "from_route": "T6",
    "route_id": "T4",
    "entry_index": 0,
    "length_m": 1630
   },
   "geometry": {
    "type": "LineString",
    "coordinates": [
     [
      -73.98806,
      40.7186
     ],
     [
      -73.99375,
      40.72032
     ],
     [
      -73.99399,
      40.7203
     ],
     [
      -73.99538,
      40.71738
     ],
     [
      -73.99764,
      40.71401
     ],
     [
      -73.99898,
      40.71339
     ],
     [
      -74.00083,
      40.71308
     ],
     [
      -74.00097,
      40.71333
     ]
    ]
   }
  },
  {
   "type": "Feature",
   "properties": {
    "from_route": "T6",
    "route_id": "T5",
    "entry_index": 3,
    "length_m": 1294
   },
   "geometry": {
    "type": "LineString",
    "coordinates": [
     [
      -73.98806,
      40.7186
     ],
     [
      -73.99375,
      40.72032
     ],
     [
      -73.99399,
      40.7203
     ],
     [
      -73.9974,
      40.72146
     ],
     [
      -73.99767,
      40.72076
     ],
     [
      -73.99995,
      40.71802
     ]
    ]
   }
  },
  {
   "type": "Feature",
   "properties": {
    "from_route": "T6",
    "route_id": "T7",
    "entry_index": 3,
    "length_m": 1294
   },
   "geometry": {
    "type": "LineString",
    "coordinates": [
     [
      -73.98806,
      40.7186
     ],
     [
      -73.99375,
      40.72032
     ],
     [
      -73.99399,
      40.7203
     ],
     [
      -73.9974,
      40.72146
     ],
     [
      -73.99767,
      40.72076
     ],
     [
      -73.99995,
      40.71802
     ]
    ]
   }
  },
  {
   "type": "Feature",
   "properties": {
    "from_route": "T7",
    "route_id": "R1",
    "entry_index": 0,
    "length_m": 4751
   },
   "geometry": {
    "type": "LineString",
    "coordinates": [
     [
      -73.99334,
      40.74966
     ],
     [
      -73.99201,
      40.7491
     ],
     [
      -74.00111,
      40.7366
     ],
     [
      -73.99975,
      40.73433
     ],
     [
      -73.99952,
      40.73366
     ],
     [
      -74.00137,
      40.73113
     ],
     [
      -74.00211,
      40.72987
     ],
     [
      -74.00296,
      40.72814
     ],
     [
      -74.00536,
      40.72223
     ],
     [
      -74.00535,
      40.72188
     ],
     [
      -73.99995,
      40.71802
     ],
     [
      -74.00206,
      40.71524
     ],
     [
      -74.0026,
      40.71429
     ],
     [
      -74.00097,
      40.71333
     ]
    ]
   }
  },
  {
   "type": "Feature",
   "properties": {
    "from_route": "T7",
    "route_id": "R2",
    "entry_index": 6,
    "length_m": 5186
   },
   "geometry": {
    "type": "LineString",
    "coordinates": [
     [
      -73.99334,
      40.74966
     ],
     [
      -73.99201,
      40.7491
     ],
     [
      -73.99564,
      40.74411
     ],
     [
      -73.98315,
      40.73884
     ],
     [
      -73.9914,
      40.7275
     ],
     [
      -73.99399,
      40.7203
     ],
     [
      -73.99054,
      40.71918
     ],
     [
      -73.99286,
      40.7147
     ],
     [
      -73.99276,
      40.71385
     ]
    ]
   }
  },
  {
   "type": "Feature",
   "properties": {
    "from_route": "T7",
    "route_id": "R3",
    "entry_index": 9,
    "length_m": 5223
   },
   "geometry": {
    "type": "LineString",
    "coordinates": [
     [
      -73.99334,
      40.74966
     ],
     [
      -73.99201,
      40.7491
     ],
     [
      -73.99564,
      40.74411
     ],
     [
      -73.98315,
      40.73884
     ],
     [
      -73.99138,
      40.72755
     ],
     [
      -73.99399,
      40.7203
     ],
     [
      -73.98743,
      40.71824
     ],
     [
      -73.98582,
      40.71762
     ],
     [
      -73.98566,
      40.71739
     ],
     [
      -73.98348,
      40.71672
     ]
    ]
   }
  },
  {
   "type": "Feature",
   "properties": {
    "from_route": "T7",
    "route_id": "R4",
    "entry_index": 8,
    "length_m": 3779
   },
   "geometry": {
    "type": "LineString",
    "coordinates": [
     [
      -73.99334,
      40.74966
     ],
     [
      -73.99485,
      40.75029
     ],
     [
      -73.99847,
      40.74531
     ],
     [
      -74.00416,
      40.7477
     ],
     [
      -74.00786,
      40.74263
     ],
     [
      -74.00813,
      40.74243
     ],
     [
      -74.00871,
      40.74233
     ],
     [
      -74.00916,
      40.74062
     ],
     [
      -74.0098,
      40.73951
     ],
     [
      -74.00994,
      40.73878
     ],
     [
      -74.01012,
      40.73853
     ],
     [
      -74.01003,
      40.73731
     ],
     [
      -74.01101,
      40.72703
     ]
    ]
   }
  },
  {
   "type": "Feature",
   "properties": {
    "from_route": "T7",
    "route_id": "R5",
    "entry_index": 8,
    "length_m": 956
   },
   "geometry": {
    "type": "LineString",
    "coordinates": [
     [
      -73.99334,
      40.74966
     ],
     [
      -73.99201,
      40.7491
     ],
     [
      -73.99061,
      40.75101
     ],
     [
      -73.98455,
      40.74845
     ]
    ]
   }
  },
  {
   "type": "Feature",
   "properties": {
    "from_route": "T7",
    "route_id": "T1",
    "entry_index": 0,
    "length_m": 4751
   },
   "geometry": {
    "type": "LineString",
    "coordinates": [
     [
      -73.99334,
      40.74966
     ],
     [
      -73.99201,
      40.7491
     ],
     [
      -74.00111,
      40.7366
     ],
     [
      -73.99975,
      40.73433
     ],
     [
      -73.99952,
      40.73366
     ],
     [
      -74.00137,
      40.73113
     ],
     [
      -74.00211,
      40.72987
     ],
     [
      -74.00296,
      40.72814
     ],
     [
      -74.00536,
      40.72223
     ],
     [
      -74.00535,
      40.72188
     ],
     [
      -73.99995,
      40.71802
     ],
     [
      -74.00206,
      40.71524
     ],
     [
      -74.0026,
      40.71429
     ],
     [
      -74.00097,
      40.71333
     ]
    ]
   }
  },
  {
   "type": "Feature",
   "properties": {
    "from_route": "T7",
    "route_id": "T2",
    "entry_index": 0,
    "length_m": 4751
   },
   "geometry": {
    "type": "LineString",
    "coordinates": [
     [
      -73.99334,
      40.74966
     ],
     [
      -73.99201,
      40.7491
     ],
     [
      -74.00111,
      40.7366
     ],
     [
      -73.99975,
      40.73433
     ],
     [
      -73.99952,
      40.73366
     ],
     [
      -74.00137,
      40.73113
     ],
     [
      -74.00211,
      40.72987
     ],
     [
      -74.00296,
      40.72814
     ],
     [
      -74.00536,
      40.72223
     ],
     [
      -74.00535,
      40.72188
     ],
     [
      -73.99995,
      40.71802
     ],
     [
      -74.00206,
      40.71524
     ],
     [
      -74.0026,
      40.71429
     ],
     [
      -74.00097,
      40.71333
     ]
    ]
   }
  },
  {
   "type": "Feature",
   "properties": {
    "from_route": "T7",
    "route_id": "T3",
    "entry_index": 0,
    "length_m": 4751
   },
   "geometry": {
    "type": "LineString",
    "coordinates": [
     [
      -73.99334,
      40.74966
     ],
     [
      -73.99201,
      40.7491
     ],
     [
      -74.00111,
      40.7366
     ],
     [
      -73.99975,
      40.73433
     ],
     [
      -73.99952,
      40.73366
     ],
     [
      -74.00137,
      40.73113
     ],
     [
      -74.00211,
      40.72987
     ],
     [
      -74.00296,
      40.72814
     ],
     [
      -74.00536,
      40.72223
     ],
     [
      -74.00535,
      40.72188
     ],
     [
      -73.99995,
      40.71802
     ],
     [
      -74.00206,
      40.71524
     ],
     [
      -74.0026,
      40.71429
     ],
     [
      -74.00097,
      40.71333
     ]
    ]
   }
  },
  {
   "type": "Feature",
   "properties": {
    "from_route": "T7",
    "route_id": "T4",
    "entry_index": 0,
    "length_m": 4751
   },
   "geometry": {
    "type": "LineString",
    "coordinates": [
     [
      -73.99334,
      40.74966
     ],
     [
      -73.99201,
      40.7491
     ],
     [
      -74.00111,
      40.7366
     ],
     [
      -73.99975,
      40.73433
     ],
     [
      -73.99952,
      40.73366
     ],
     [
      -74.00137,
      40.73113
     ],
     [
      -74.00211,
      40.72987
     ],
     [
      -74.00296,
      40.72814
     ],
     [
      -74.00536,
      40.72223
     ],
     [
      -74.00535,
      40.72188
     ],
     [
      -73.99995,
      40.71802
     ],
     [
      -74.00206,
      40.71524
     ],
     [
      -74.0026,
      40.71429
     ],
     [
      -74.00097,
      40.71333
     ]
    ]
   }
  },
  {
   "type": "Feature",
   "properties": {
    "from_route": "T7",
    "route_id": "T5",
    "entry_index": 5,
    "length_m": 3892
   },
   "geometry": {
    "type": "LineString",
    "coordinates": [
     [
      -73.99334,
      40.74966
     ],
     [
      -73.99201,
      40.7491
     ],
     [
      -74.00111,
      40.7366
     ],
     [
      -73.99975,
      40.73433
     ],
     [
      -73.99952,
      40.73366
     ],
     [
      -74.00137,
      40.73113
     ],
     [
      -74.00211,
      40.72987
     ],
     [
      -74.00296,
      40.72814
     ],
     [
      -74.00536,
      40.72223
     ],
     [
      -74.00535,
      40.72188
     ],
     [
      -74.00188,
      40.7194
     ],
     [
      -74.00181,
      40.71949
     ]
    ]
   }
  },
  {
   "type": "Feature",
   "properties": {
    "from_route": "T7",
    "route_id": "T6",
    "entry_index": 6,
    "length_m": 4259
   },
   "geometry": {
    "type": "LineString",
    "coordinates": [
     [
      -73.99334,
      40.74966
     ],
     [
      -73.99201,
      40.7491
     ],
     [
      -73.99564,
      40.74411
     ],
     [
      -73.98315,
      40.73884
     ],
     [
      -73.99138,
      40.72755
     ],
     [
      -73.99399,
      40.7203
     ],
     [
      -73.99375,
      40.72032
     ]
    ]
   }
  }
 ]
}